provider_name,website,phone,address1,city,county
"""Play Strong Kids""- Building Resilience and Ending Behavioral and Emotional Challenges in Children",https://www.playstrongkids.com/,(727) 222-5667,"205 Crystal Grove Blvd #102, Lutz, FL 33549, USA",Lutz,null
24/7 Chiropractic Wellness & Rehab,http://247chiropractic.com/,(352) 340-3220,"2631 Forest Rd, Spring Hill, FL 34606, USA",Spring Hill,null
360 Therapy,https://www.360therapy.care/?utm_source=omg-gbp&utm_medium=webclick,(305) 396-6009,"1380 NE Miami Gardens Dr #242, North Miami Beach, FL 33179, USA",North Miami Beach,null
4x4 Stables,null,(754) 269-0608,"18130 SW 68th Ct, Southwest Ranches, FL 33331, USA",Southwest Ranches,null
"A Heart for H.E.R.O's, Inc.",http://www.aheartforheros.org/,(863) 207-8947,"5247 Rifle Range Rd, Bartow, FL 33830, USA",Bartow,null
A Horse's Touch,https://www.facebook.com/profile.php?id=100063618938779,(813) 992-0743,"12435 Cody Dr, Wimauma, FL 33598, USA",Wimauma,null
A.C.A CENTER,https://acacenter.us/,(786) 271-9696,"8850 NW 13th Terrace # 107, Miami, FL 33172, USA",Miami,null
A&A Adventure Horse Trail Rides,https://www.aaadventurehorsetrails.com/,(954) 816-2685,"Call for reservation, Office only, 2764 SW 83rd Ave, Miramar, FL 33025, USA",Miramar,null
AA Animal ER Center,http://www.aaanimalercenter.com/,(727) 787-5402,"36401 US-19, Palm Harbor, FL 34684, USA",Palm Harbor,null
"ABA THERAPY LEADERS BEHAVIOR ABA & COUNSELING, LLC",https://leadersabatherapy.com/,(772) 333-4411,"1600 SW Sylvester Ln, Port St. Lucie, FL 34984, USA",Port St. Lucie,null
Accomplished Canine,http://accomplishedcanine.com/,(904) 999-4642,"1904 San Marie Dr S, Jacksonville, FL 32217, USA",Jacksonville,null
Activo-Med,null,(561) 635-2216,"1851 Corsica Dr, Wellington, FL 33414, USA",Wellington,null
Acts2Acres Equestrian Center,http://www.acts2acres.com/,(954) 326-2528,"16668 Winners Cir #9, Delray Beach, FL 33446, USA",Delray Beach,null
Advanced Physical Therapy Specialists,http://www.advancedpts.com/,(305) 433-1172,"7520 SW 57th Ave # E-1, South Miami, FL 33143, USA",South Miami,null
AdventHealth Centra Care Lee Road,https://centracare.adventhealth.com/urgent-care/lee-road,(407) 629-9281,"2540 Lee Rd, Winter Park, FL 32789, USA",Winter Park,null
AdventHealth Centra Care Waterford Lakes,https://centracare.adventhealth.com/urgent-care/waterford-lakes,(407) 381-4810,"250 N Alafaya Trail # 135, Orlando, FL 32825, USA",Orlando,null
Affirming Words Counseling LLC,http://www.affirmingwords.org/,(973) 204-4100,"901 SW Martin Downs Blvd, Palm City, FL 34990, USA",Palm City,null
Aidan Post-Acute and Rehabilitation Center,null,(772) 465-7560,"700 S 29th St, Fort Pierce, FL 34947, USA",Fort Pierce,null
Akc Saint Bernard Puppies,https://www.akcsaintbernardpuppies.com/,(989) 460-7960,"1111 State Rte 50, Brooksville, FL 34601, USA",Brooksville,null
Alachua County Agriculture and Equestrian Center,https://www.visitgainesville.com/explore/attraction/alachua-county-agricultural-and-equestrian-center/,(352) 472-6758,"23100 W Newberry Rd, Newberry, FL 32669, USA",Newberry,null
All About Dogs! Pet Sitting Services,http://allaboutdogspss.com/,(561) 707-3617,"1600 Royal Forest Ct, West Palm Beach, FL 33406, USA",West Palm Beach,null
All About Puppies,https://allaboutpuppiesflorida.com/,(727) 536-4900,"7190 Ulmerton Rd, Largo, FL 33771, USA",Largo,null
All About Puppies,https://allaboutpuppiesflorida.com/,(863) 816-5658,"4000 US Hwy 98 N #301, Lakeland, FL 33809, USA",Lakeland,null
All Creatures Animal Clinic,https://www.allcreaturesfl.com/?utm_source=gmb&utm_medium=organic&y_source=1_MTE2NjkwMjUtNzE1LWxvY2F0aW9uLndlYnNpdGU%3D,(863) 646-5683,"1019 W Pipkin Rd, Lakeland, FL 33811, USA",Lakeland,null
All critters pet boarding service,https://allcritterspetboardingservice.com/,(813) 418-9039,"8005 Racetrack Rd, Tampa, FL 33635, USA",Tampa,null
All Dogs Unleashed Dog Training Tampa,https://www.alldogsunleashed.com/tampa/,(813) 442-9538,"8361 Stone Run Ct, Tampa, FL 33615, USA",Tampa,null
All Dogs Unleashed Orlando,https://www.alldogsunleashed.com/orlando/,(407) 987-4222,"7480 Narcoossee Rd #100A, Orlando, FL 32822, USA",Orlando,null
"All Fur Pets, Inc",https://allfurpetsjax.com/,(904) 738-0579,"6849 St Augustine Rd, Jacksonville, FL 32217, USA",Jacksonville,null
All Heavenly Creatures Pet Crematory is Now Resting Rainbow of Port St. Lucie,https://www.restingrainbow.com/locations/port-st-lucie,(772) 878-2315,"8555 S Federal Hwy, Port St. Lucie, FL 34952, USA",Port St. Lucie,null
Allied Health & Rehabilitation,https://callallied.com/,(850) 328-0424,"177 Salem Ct, Tallahassee, FL 32301, USA",Tallahassee,null
Allied Physical Therapy Wellness Community,http://alliedpt.com/,(239) 242-0070,"1469 SW 4th Terrace, Cape Coral, FL 33991, USA",Cape Coral,null
AlphA and Omega Dog Training - Fort Lauderdale,http://www.alphaandomegadogtraining.com/,(844) 739-0990,"Main, Pompano Beach, FL 33062, USA",Pompano Beach,null
AlphA and Omega Dog Training - Miami,https://alphaandomegadogtraining.com/,(844) 739-0990,"880 NE 69th St APT 4S, Miami, FL 33138, USA",Miami,null
Alpha Buddy Dog Training,https://alphabuddydogtraining.com/,(305) 873-4555,"2805 SW 6th St, Fort Lauderdale, FL 33312, USA",Fort Lauderdale,null
"Always Dreaming Horse Ranch and Rescue, INC",null,null,"10920 Barn Rd, Lake Worth Beach, FL 33449, USA",Lake Worth Beach,null
Amber Glen Farm & Equestrian Center,null,(727) 423-7812,"6348 102nd Ave N, Pinellas Park, FL 33782, USA",Pinellas Park,null
AMP Stables & Boarding,http://www.ampstables.com/,(954) 228-9165,"16548 Winners Cir Barn 7, Delray Beach, FL 33446, USA",Delray Beach,null
Amplify Therapeutic Services,http://www.amplifytherapeuticservices.com/,(904) 257-6834,"2309 Park St, Jacksonville, FL 32204, USA",Jacksonville,null
Amy's Canine Kindergarten,http://amysk9kindergarten.com/,(813) 785-9159,"16326 Nikki Ln, Odessa, FL 33556, USA",Odessa,null
Angel Paws,https://rymaps.com/business/angel-paws-ivrcf9,(407) 879-7553,"11110 SW 10th Ct, Pembroke Pines, FL 33025, USA",Pembroke Pines,null
Angel Paws Massage,http://www.angelpawsmassage.com/,(561) 512-8768,"10235 Sandy Run Rd, Jupiter, FL 33478, USA",Jupiter,null
Angel's Animal Sanctuary,https://www.angelsanimalsanctuary.org/,(386) 732-7257,"330 Spring Forest Dr, New Smyrna Beach, FL 32168, USA",New Smyrna Beach,null
Animal & Exotic Medical Center,http://animalandexoticmedicalcenter.vetstreet.com/,(813) 269-5200,"18962 N Dale Mabry Hwy, Lutz, FL 33548, USA",Lutz,null
Animal Aid & Spay/Neuter Center,https://animalaid.us/,(850) 386-4148,"2270 Boone Blvd, Tallahassee, FL 32303, USA",Tallahassee,null
Animal Associates,http://www.animalassoc.com/,(727) 725-2788,"955 Delaware St, Safety Harbor, FL 34695, USA",Safety Harbor,null
Animal Cancer Care Clinic,http://www.animalcancercareclinic.com/,(954) 527-3111,"2239 S Kanner Hwy, Stuart, FL 34994, USA",Stuart,null
Animal Cancer Care Clinic,http://www.animalcancercareclinic.com/,(954) 527-3111,"6394 S Dixie Hwy, Miami, FL 33143, USA",Miami,null
Animal Cancer Care Clinic,http://www.animalcancercareclinic.com/,(407) 930-6679,"106 N Dean Rd #120, Orlando, FL 32825, USA",Orlando,null
Animal Care Clinic of Largo,http://www.acaringanimalhospitallargo.com/,(727) 614-9732,"1100 Seminole Blvd, Largo, FL 33770, USA",Largo,null
Animal Eye Clinic,http://www.animaleyevets.com/,(904) 278-7850,"1615 Mahan Center Blvd, Tallahassee, FL 32308, USA",Tallahassee,null
Animal Eye Clinic,http://www.animaleyevets.com/,(904) 278-7850,"275 Corporate Way Ste. 200, Orange Park, FL 32073, USA",Orange Park,null
Animal Eye Doctors,https://animaleyedoctors.com/,(239) 948-3937,"9180 Estero Park Commons Blvd #4, Estero, FL 33928, USA",Estero,null
Animal Eye Specialty Clinic - Stuart,https://www.animaleyespecialtyclinic.com/,(772) 220-8485,"2239 S Kanner Hwy, Stuart, FL 34994, USA",Stuart,null
Animal General Hospital,http://www.petsvet.com/,(772) 344-8835,"501 SW Port St Lucie Blvd, Port St. Lucie, FL 34953, USA",Port St. Lucie,null
Animal Healing Solutions,http://www.animalhealingsolutions.com/,(407) 308-7878,"1117 E Altamonte Dr, Altamonte Springs, FL 32701, USA",Altamonte Springs,null
Animal Health Center of Land O' Lakes,https://www.ahclandolakes.com/,(813) 996-3800,"9555 Land O' Lakes Blvd, Land O' Lakes, FL 34638, USA",Land O' Lakes,null
Animal Health Center of Port St Lucie,http://ahcpsl.com/,(772) 873-4745,"1861 SW Gatlin Blvd, Port St. Lucie, FL 34953, USA",Port St. Lucie,null
Animal Inn-New Port Richey,http://www.animalinnpascodogboarding.com/,(727) 847-7480,"8247 Pala Ct, New Port Richey, FL 34653, USA",New Port Richey,null
Animal Medical Hospital,https://animalmedicalhospital.net/,(727) 896-7127,"2540 30th Ave N, St. Petersburg, FL 33713, USA",St. Petersburg,null
Animal Recreation & Rehabilitation Center,null,(954) 916-4903,"2670 S Flamingo Rd, Davie, FL 33330, USA",Davie,null
Animal Rehab Institute,https://animalrehabinstitute.com/,(561) 790-1020,"2457 C Rd, Loxahatchee, FL 33470, USA",Loxahatchee,null
Animal Sterilization and Immunization Services,null,(305) 461-2600,"3240 NW 7th St, Miami, FL 33125, USA",Miami,null
Animal Sterlization & Prevention,null,(352) 797-9090,"837 S Broad St, Brooksville, FL 34601, USA",Brooksville,null
Animal Training Adventure Summer Camp,null,(850) 294-1964,"2941 Kerry Forest Pkwy, Tallahassee, FL 32309, USA",Tallahassee,null
Annwyn Equestrian Center,http://www.annwynequestrian.com/,(813) 333-5562,"2916 N Valrico Rd, Seffner, FL 33584, USA",Seffner,null
Applied Canine Concepts,null,null,"3155 SW 78th Ave, Palm City, FL 34990, USA",Palm City,null
Appy Pines Ranch,null,(954) 680-8069,"5790 SW 130th Ave, Southwest Ranches, FL 33330, USA",Southwest Ranches,null
Arc Educates,https://arcbroward.com/educates/,(954) 746-9400,"10250 NW 53rd St, Sunrise, FL 33351, USA",Sunrise,null
ARC Mental Health,https://arcmentalhealth.com/,(786) 916-6073,"14400 NW 77th Ct #100, Miami Lakes, FL 33016, USA",Miami Lakes,null
ASA Service Dogs Inc.,http://asaservicedogs.org/?utm_source=google&utm_medium=wix_google_business_profile&utm_campaign=11647736468986843136,(704) 323-6650,"3701 E Trapnell Rd, Plant City, FL 33566, USA",Plant City,null
Aspire Health Partners - Princeton Plaza,https://aspirehealthpartners.com/programs-and-services/,(407) 875-3700,"1800 Mercy Dr, Orlando, FL 32808, USA",Orlando,null
Athena's Wildlife Sanctuary,null,(352) 701-8464,"17022 Budowski Rd, Brooksville, FL 34614, USA",Brooksville,null
Athlete Restoration Co.,http://www.athleterestorationcompany.com/,(561) 899-8725,"1655 Palm Beach Lakes Blvd Suite 106, West Palm Beach, FL 33401, USA",West Palm Beach,null
Atlantic East Animal Clinic,http://atlanticeastanimalclinic.com/,(904) 246-8300,"725 Atlantic Blvd #1, Atlantic Beach, FL 32233, USA",Atlantic Beach,null
Autism Inspired Academy,http://autisminspired.org/,(727) 474-7711,"11225 US Hwy 19 N, Clearwater, FL 33764, USA",Clearwater,null
Autism Project of Palm Beach County,https://www.autismprojectofpalmbeachcounty.org/contact,(561) 748-3299,"1310 Congress Ave, West Palm Beach, FL 33409, USA",West Palm Beach,null
Autism Society Broward County,null,(954) 465-4700,"10250 NW 53rd St, Fort Lauderdale, FL 33309, USA",Fort Lauderdale,null
Avalon Stables,http://avalonstables.com/,(813) 765-7162,"18029 Lake Reflections Blvd, Lutz, FL 33558, USA",Lutz,null
Avante at Melbourne,https://www.avantecenters.com/avante-melbourne-fl-skilled-nursing-assisted-living.html,(321) 326-2300,"1420 Oak St, Melbourne, FL 32901, USA",Melbourne,null
Aviata at Central Park,https://centers.aviatahg.com/fl/brandon/702-s-kings-ave,(813) 651-1818,"702 S Kings Ave, Brandon, FL 33511, USA",Brandon,null
Aviata at Fletcher,https://centers.aviatahg.com/fl/tampa/518-w-fletcher-ave,(813) 265-1600,"518 W Fletcher Ave, Tampa, FL 33612, USA",Tampa,null
Aviata at the Gardens - Tallahassee,https://centers.aviatahg.com/fl/tallahassee/1650-phillips-rd,(850) 942-9868,"1650 Phillips Rd, Tallahassee, FL 32308, USA",Tallahassee,null
Awesome Greyhound Adoptions,http://www.awesomegreyhoundadoptions.org/#!copy-of-donation-boxes-locations/cbuw,(561) 737-1941,"226 SE 1st Ave, Boynton Beach, FL 33435, USA",Boynton Beach,null
Back In Motion Performance & Physical Therapy - Cape Coral,https://backinmotionsspt.com/physical-therapy-clinic-cape-coral-near-you/?utm_campaign=gmb&utm_medium=gmb&utm_source=google,(239) 319-4830,"2708 Santa Barbara Blvd #145, Cape Coral, FL 33914, USA",Cape Coral,null
Back In Motion Performance & Physical Therapy Fort Myers FL,https://backinmotionsspt.com/physical-therapist-fort-myers/,(239) 766-5572,"9400 Gladiolus Dr Ste 100, Fort Myers, FL 33908, USA",Fort Myers,null
Back To Work Physical Therapy - Westchase,https://www.h2health.com/locations/back-to-work-physical-therapy/westchase-fl/,(813) 926-4346,"10960 Sheldon Rd, Tampa, FL 33626, USA",Tampa,null
Balanced Genetics,http://balanced-genetics.com/,(772) 742-1110,"6100 SE Federal Hwy, Stuart, FL 34997, USA",Stuart,null
Banfield Pet Hospital,https://www.banfield.com/locations/veterinarians/fl/jacksonville/jck?utm_source=yext&utm_medium=yext&utm_campaign=yext&cid=yext_local,(904) 777-0909,"9515 Crosshill Blvd STE 113, Jacksonville, FL 32222, USA",Jacksonville,null
Banfield Pet Hospital,https://www.banfield.com/locations/veterinarians/fl/gainesville/gns?utm_source=yext&utm_medium=yext&utm_campaign=yext&cid=yext_local,(352) 377-3769,"3736 SW Archer Rd, Gainesville, FL 32608, USA",Gainesville,null
Banfield Pet Hospital,https://www.banfield.com/locations/veterinarians/fl/gainesville/abn?utm_source=yext&utm_medium=yext&utm_campaign=yext&cid=yext_local,(352) 373-8055,"4209 NW 37th Pl, Gainesville, FL 32606, USA",Gainesville,null
Banyan Boca,https://www.banyantreatmentcenter.com/facilities/boca-raton/?utm_source=GMBlisting&utm_medium=organic,(561) 220-9364,"1000 NW 15th St, Boca Raton, FL 33486, USA",Boca Raton,null
Banyan Stuart,https://www.banyantreatmentcenter.com/facilities/stuart/?utm_source=GMBlisting&utm_medium=organic,(772) 492-4253,"201 SE Osceola St, Stuart, FL 34994, USA",Stuart,null
Barb Kosters Riding Academâ€‹y,http://barbkostersridingacademy.com,(754) 234-5981,"5250 SW 130th Ave, Southwest Ranches, FL 33330, USA",Southwest Ranches,null
"Barbara B. Welsch, DVM",http://www.acompassionateway.com/,(352) 392-1161,"Fletcher Dr, Gainesville, FL 32603, USA",Gainesville,null
Barbie's Jewels Horsing-Around Therapeutic Ranch,https://instagram.com/firewmn?igshid=OGQ5ZDc2ODk2ZA==,(954) 665-3508,"6230 Melaleuca Rd, Southwest Ranches, FL 33330, USA",Southwest Ranches,null
Bark Busters Home Dog Training Fort Myers,https://www.barkbusters.com/dog-training/fortmyers/?utm_source=GMBListing&utm_medium=WebsiteClicks&utm_campaign=2-11-013,(877) 500-2275,"10958 Longwing Dr, Fort Myers, FL 33912, USA",Fort Myers,null
Barrett Farm Inc,http://www.barrettfarm.com/,(407) 365-5456,"5100 Double R Ln, Oviedo, FL 32765, USA",Oviedo,null
Bart Corrington Reining Horses,https://www.facebook.com/LazyTriangleD/,(850) 212-4320,"8527 Freshwater Farms Rd, Tallahassee, FL 32309, USA",Tallahassee,null
BASE Physical Therapy,http://basephysicaltherapy.com/,(850) 727-5406,"3361 Raymond Diehl Business Lane Rd, Tallahassee, FL 32308, USA",Tallahassee,null
Bauser's Pet Training,https://bauserspettraining.com/,(305) 454-0420,"1944 NE 151st St, North Miami Beach, FL 33162, USA",North Miami Beach,null
Bayard Kennel,null,(904) 591-8679,"7520 Anna St, Jacksonville, FL 32256, USA",Jacksonville,null
BayCare Behavioral Health- Winter Haven Hospital Center for Behavioral Health Annex,https://baycare.org/locations/b/baycare-behavioral-health--winter-haven-hospital-center-for-behavioral-health-annex?utm_campaign=BayCare_DigitalMarketing_M20140288&utm_source=Google&utm_medium=LocalListing&utm_content=BayCare_Behavioral_Health-_Winter_Haven_Hospital_Center_for_Behavioral_Health_Annex,(863) 291-3611,"1501 1st St S, Winter Haven, FL 33880, USA",Winter Haven,null
Bayside Care Center,https://www.bayside-cc.com/,(727) 209-3600,"811 Jackson St N, St. Petersburg, FL 33705, USA",St. Petersburg,null
Baywood Pet Resort,https://vcahospitals.com/baywood/services/pet-boarding/dog-boarding,(239) 549-2949,"4711 Vincennes Blvd, Cape Coral, FL 33904, USA",Cape Coral,null
BBB of Northeast Florida,http://www.bbb.org/north-east-florida,(904) 721-2288,"4417 Beach Blvd #202, Jacksonville, FL 32207, USA",Jacksonville,null
Be The Solution,http://www.bethesolution.us/,(850) 545-2043,"1208 Capital Cir SE, Tallahassee, FL 32301, USA",Tallahassee,null
Beach Dawg Care,https://www.beachdawgcare.com/,(954) 489-8756,"1643 NE 17th Ave, Fort Lauderdale, FL 33305, USA",Fort Lauderdale,null
Beach Street Health and Rehabilitation Center,https://beachstreethrc.com/,(386) 258-3334,"1001 S Beach St, Daytona Beach, FL 32114, USA",Daytona Beach,null
Beaches Jet Set Pets,http://beachesjetsetpets.com/,(904) 372-4608,"949 12th Ave S, Jacksonville Beach, FL 32250, USA",Jacksonville Beach,null
Beaches Nature Therapy,https://www.beachesnaturetherapy.com/,(904) 720-6472,"1682 Penman Rd, Jacksonville Beach, FL 32250, USA",Jacksonville Beach,null
Behavioral Health of the Palm Beaches,https://www.bhpalmbeach.com/?utm_source=GMBlisting&utm_medium=organic,(561) 264-1138,"7859 Lake Worth Rd, Wellington, FL 33467, USA",Wellington,null
Berry Good Farms,https://www.berrygoodfarms.org/food-truck/locations/,(904) 724-8323,"223 Mill Creek Rd, Jacksonville, FL 32211, USA",Jacksonville,null
Bespoke Canine Training,https://bespokecaninetraining.com/,(813) 406-3460,"Pulteney Dr, Wesley Chapel, FL 33545, USA",Wesley Chapel,null
Best Behaved Pups,https://bestbehavedpups.com/,(904) 309-3009,"4402 Melrose Ave, Jacksonville, FL 32210, USA",Jacksonville,null
Best Friend's Dog Training Greater Tampa FL,https://muttmanners.com/pasco-pinellas-county-dog-training/,(727) 767-9000,"40946 US Hwy 19 N, Tarpon Springs, FL 34689, USA",Tarpon Springs,null
Beyond the Dog - Tampa Bay,https://beyondthedogtraining.com/tampa-bay/dog-training/,(813) 694-9771,"1529 W North A St Suite 24, Tampa, FL 33606, USA",Tampa,null
Beyond the Leash Dog Training,https://btl.dog/,(407) 872-9121,"115 W Gore St, Orlando, FL 32806, USA",Orlando,null
Black Creek Pet Clinic at Poochies,null,(904) 375-2205,"37 Fountain Dr, Orange Park, FL 32065, USA",Orange Park,null
Black Male Therapist,http://blackmaletherapist.net/,(904) 322-2162,"6034 Chester Ave #205, Jacksonville, FL 32217, USA",Jacksonville,null
Bloxam Boarding Kennels,null,(850) 597-1739,"1886 Bloxham Cutoff Rd, Crawfordville, FL 32327, USA",Crawfordville,null
Blue Lotus Stables,null,(239) 246-1925,"7170 Nalle Grade Rd, North Fort Myers, FL 33917, USA",North Fort Myers,null
Blue Sky Therapeutic Services,https://www.blueskytherapeuticservices.com/contact,(850) 290-2020,"6050 Shady Ln, Tallahassee, FL 32309, USA",Tallahassee,null
BluePearl Pet Hospital,https://bluepearlvet.com/hospital/tampa-fl/?utm_source=maps&utm_medium=google&utm_campaign=gbp,(813) 933-8944,"3000 Busch Lake Blvd, Tampa, FL 33614, USA",Tampa,null
BluePearl Pet Hospital,https://bluepearlvet.com/hospital/maitland-fl/?utm_source=maps&utm_medium=google&utm_campaign=gbp,(407) 644-1287,"9905 S US Hwy 17 92, Maitland, FL 32751, USA",Maitland,null
BluePearl Pet Hospital Fort Lauderdale,https://bluepearlvet.com/hospital/fort-lauderdale-fl/,(954) 641-1100,"3217 NW 10th Terrace, Fort Lauderdale, FL 33309, USA",Fort Lauderdale,null
Bob Thomas Equestrian Center,https://floridastatefair.com/equestrian/,(813) 621-7821,"4800 US-301, Tampa, FL 33610, USA",Tampa,null
BONANZA EQUESTRIAN CENTER,null,(786) 564-6524,"6000 SW 123rd Ave, Miami, FL 33183, USA",Miami,null
Boynton Beach Rehab,https://www.boyntonbeachrehab.com/,(561) 740-4100,"9600 Lawrence Rd, Boynton Beach, FL 33436, USA",Boynton Beach,null
Breedmaster Dog Training,http://breedmasterdogtraining.com/,(954) 594-9490,"By appointment only, Southwest Ranches, FL 33330, USA",Southwest Ranches,null
Brentwood Animal Clinic,https://www.brentwoodanimalclinic.com/,(904) 354-0547,"4605 Brentwood Ave, Jacksonville, FL 32206, USA",Jacksonville,null
Brevard Aid To Animals,http://brevardaidtoanimals.com/,(321) 421-6277,"2161 Aurora Rd, Melbourne, FL 32935, USA",Melbourne,null
Brevard Equestrian Center,https://brevardec.com/,(321) 960-2305,"4850 Old Dixie Hwy, Grant-Valkaria, FL 32949, USA",Grant-Valkaria,null
Brevard Spay/Neuter Clinic,http://www.brevardsnc.com/,(321) 724-1141,"4430 Dixie Hwy NE, Palm Bay, FL 32905, USA",Palm Bay,null
Brigadoon Farm,https://www.facebook.com/Brigadoon-Farm-700803026733588/,(804) 445-3714,"1330 Van Arsdale St, Oviedo, FL 32765, USA",Oviedo,null
Brookdale Highlands,https://www.brookdale.com/en/communities/brookdale-highlands.html?cid=yext,(863) 701-7820,"4250 Lakeland Highlands Rd, Lakeland, FL 33813, USA",Lakeland,null
Brumfield Kevin DVM,http://southwoodanimalhospital.com/,(850) 942-6650,"2528 Capital Cir SE, Tallahassee, FL 32311, USA",Tallahassee,null
BTTC West Palm Beach Rehab,https://bettertomorrowtc.com/?utm_source=gmb,(561) 933-7531,"5829 Corporate Way, West Palm Beach, FL 33407, USA",West Palm Beach,null
"Butterfly Lane Equestrian Stables, Inc.",http://www.butterflylaneequestrianstables.com/,(850) 329-7669,"2407 Chaires Cross Rd, Tallahassee, FL 32317, USA",Tallahassee,null
Caladesi Portuguese Water Dogs,http://caladesipwds.com/,(727) 215-9422,"12022 NW 25th Dr #4015, Gainesville, FL 32609, USA",Gainesville,null
Calvary Equine Inc.,null,(619) 857-1476,"11443 Misty Isle Ln, Riverview, FL 33579, USA",Riverview,null
Camp MoJoâ€™s,http://www.campmojos.com/,(850) 422-3063,"2595 Centerville Rd, Tallahassee, FL 32308, USA",Tallahassee,null
"Canine Academy Dog Training, Anna Nylander",null,(954) 907-2250,"1020 N 19th Ave #14, Hollywood, FL 33020, USA",Hollywood,null
Canine Command,http://www.caninecommand.net/,(239) 963-7676,"21750 River Ranch Rd, Estero, FL 33928, USA",Estero,null
Canine Companions Southeast Training Center,https://canine.org/location/southeast/,(407) 522-3300,"8150 Clarcona Ocoee Rd, Orlando, FL 32818, USA",Orlando,null
Canine Connection LLC,null,(727) 434-1449,"Pine Island, Davie, FL 33328, USA",Davie,null
Canine Counselors,http://www.caninecounselors.com/,(305) 264-0027,"7875 Bird Rd #212, Miami, FL 33155, USA",Miami,null
Canine Linguistics - Dog Training and Boarding,https://www.caninelinguistics.com/,(321) 314-7772,"7950 Niagara Falls Ct, Orlando, FL 32825, USA",Orlando,null
Canine Pro Dog Training & Behavior Therapy,null,(954) 271-1088,"2703 NE 15th St, Pompano Beach, FL 33062, USA",Pompano Beach,null
Canine Solutions,http://www.robsdogwalking.com/,(850) 893-6683,"4142 Arklow Dr, Tallahassee, FL 32309, USA",Tallahassee,null
Canine Technology Institute - Miami Dog Boarding & Training School,https://caninetechnologyinstitute.com/,(305) 772-3386,"1560 NE 205th Terrace SUITE 310, Miami, FL 33179, USA",Miami,null
Cannine Control,null,(863) 409-1256,"Lakeland, FL 33801, USA",Lakeland,null
Cape Coral Pet Crematory,http://www.capecoralpetcrematory.com/,(239) 574-7400,"950 Country Club Blvd, Cape Coral, FL 33990, USA",Cape Coral,null
Cape Coral Therapists,http://www.capecoraltherapists.com/,(239) 565-6921,"290 Nicholas Pkwy NW #2, Cape Coral, FL 33991, USA",Cape Coral,null
Capriola Equestrian,null,(754) 232-4250,"2280 SW 154th Ave, Davie, FL 33326, USA",Davie,null
Care Animal Clinic,http://careanimalclinicfl.com/,(863) 665-2000,"2030 Edgewood Dr S, Lakeland, FL 33803, USA",Lakeland,null
Care Corner Animal Clinic,http://carecorneranimalclinic.com/,(305) 556-4080,"16776 NW 67th Ave, Hialeah, FL 33015, USA",Hialeah,null
Cares Affordable Animal Clinic,https://caresanimalclinic.com/,(352) 495-3905,"12850 NE 130th Ave, Archer, FL 32618, USA",Archer,null
Carriage Hill Farm,http://carriagehillfarms.com/,(561) 451-7900,"16429 Winners Cir, Delray Beach, FL 33446, USA",Delray Beach,null
Carter Frances DVM,http://bucklakeah.com/,(850) 878-4799,"3514 Mahan Dr, Tallahassee, FL 32308, USA",Tallahassee,null
Casanova Jackie DVM,http://www.mobileveterinarycare.com/,(352) 538-3298,"Gainesville, FL 32601, USA",Gainesville,null
Casper's Camp Hope Gainesville Dog Training,https://www.casperscamphope.com/,(352) 222-2432,"10907 SW 24th Ave, Gainesville, FL 32607, USA",Gainesville,null
Casperey Stables,http://caspereystables.com/,(561) 792-4990,"2330 D Rd, Loxahatchee, FL 33470, USA",Loxahatchee,null
Cavalier Rescue of Florida,https://cavrescuefl.org/,(800) 435-7352,"1015 Atlantic Blvd, Atlantic Beach, FL 32233, USA",Atlantic Beach,null
Celadon Recovery Campus,https://www.celadonrecovery.com/,(239) 266-2141,"3331 E Riverside Dr, Fort Myers, FL 33916, USA",Fort Myers,null
Center For Autism & Related,null,(904) 633-0760,"6271 6701-1 St Augustine Ap # 1, Jacksonville, FL 32217, USA",Jacksonville,null
Champion Dog Training Center,http://www.championdogtraining.com/,(954) 748-5423,"7139 NW 49th Ct, Lauderhill, FL 33319, USA",Lauderhill,null
CHAPS Center,http://www.chapscenter.com/,(407) 476-6434,"4952 Sanford Ave, Sanford, FL 32773, USA",Sanford,null
Chews A Puppy,http://chewsapuppyfl.com/,(407) 439-0440,"11167 W Colonial Dr, Ocoee, FL 34761, USA",Ocoee,null
ChildGarden Center | Integral Therapy,https://www.childgardens.com/,(305) 335-0407,"3300 W 84th St unit 10, Hialeah, FL 33018, USA",Hialeah,null
Children's Ranch Therapy,null,(772) 834-8834,"2293 SW Martin Hwy, Palm City, FL 34990, USA",Palm City,null
Chrysalis Health Outpatient Department,http://www.chrysalishealth.com/,(305) 630-3334,"1868 NE 164th St, North Miami Beach, FL 33162, USA",North Miami Beach,null
Circles of Care,https://www.circlesofcare.org/,(321) 722-5200,"400 E Sheridan Rd, Melbourne, FL 32901, USA",Melbourne,null
Cisco Standard Poodles,https://www.facebook.com/share/1EPQ4KF65t/?mibextid=wwXIfr,(407) 314-7095,"1982 FL-44 STE 236, New Smyrna Beach, FL 32168, USA",New Smyrna Beach,null
Coastal Health Institute,https://www.coastalhealthjax.com/,(904) 300-2809,"9889 Gate Pkwy N STE 303, Jacksonville, FL 32246, USA",Jacksonville,null
Coastal Labradoodles LLC,http://www.coastallabradoodles.com/,(512) 791-4129,"9426 Whippoorwill Trail, Jupiter, FL 33478, USA",Jupiter,null
Coconut Creek Therapy,http://www.coconutcreektherapy.com/,(954) 972-1200,"1315 Lyons Rd, Coconut Creek, FL 33063, USA",Coconut Creek,null
Coconut Grove Animal Clinic,http://www.coconutgroveanimalclinic.com/,(305) 448-2123,"3200 Grand Ave, Miami, FL 33133, USA",Miami,null
Collette Zimmer Dressage,https://www.cz-dressage.com/,(850) 247-9342,"6501 Fiddle De Dee Ln, Odessa, FL 33556, USA",Odessa,null
Come Sit Stay Dog Training,http://www.comesitstayusa.com/,(904) 233-0608,"1030 Cypress Landing Ct, Jacksonville, FL 32233, USA",Jacksonville,null
"Comfortable Companions, Inc Pet Massage Therapy and Wellness",null,(516) 448-8357,"440 Jefferson Dr, Deerfield Beach, FL 33442, USA",Deerfield Beach,null
Community Care Center,http://communitycarehealthandrehab.com/,(813) 754-3761,"2202 W Oak Ave, Plant City, FL 33563, USA",Plant City,null
Companion Animal Rescue Endeavor,http://www.careintallahassee.org/about-us/,(850) 385-8181,"1881-B N Martin Luther King Jr Blvd., Tallahassee, FL 32303, USA",Tallahassee,null
Companion Care Pet Hospital - Winter Park,https://ccpetvet.com/,(407) 604-0257,"2069 Aloma Ave, Winter Park, FL 32792, USA",Winter Park,null
Comprehensive Canine Training,http://www.comprehensivecaninetraining.com/,(904) 236-3780,"4623 Ribault Park St, Jacksonville, FL 32233, USA",Jacksonville,null
Condee Farm,https://www.condeefarm.com/,(954) 434-4137,"5200 SW 145th Ave, Southwest Ranches, FL 33330, USA",Southwest Ranches,null
Control Canine,http://controlcanine.com/,(305) 564-1500,"121 NE 45th St, Miami, FL 33137, USA",Miami,null
Conway Lakes Health & Rehabilitation,http://conwaylakesrehab.com/,(407) 384-8838,"5201 Curry Ford Rd, Orlando, FL 32812, USA",Orlando,null
Coral Reef Subacute Care Center,https://coralreefsubacute.com/,(305) 255-3220,"9869 SW 152nd St, Miami, FL 33157, USA",Miami,null
Coral Way Animal Clinic,https://www.coralwayanimalclinic.us/,(305) 381-0561,"1801 SW 27th Ave, Miami, FL 33145, USA",Miami,null
Coriander Farm,http://www.corianderfarm.com/,(904) 292-0294,"4798 Joda Ln S, Jacksonville, FL 32258, USA",Jacksonville,null
Counseling Center of New Smyrna Beach,http://www.counselingcenternewsmyrnabeach.com/,(386) 423-9161,"136 Julia St, New Smyrna Beach, FL 32168, USA",New Smyrna Beach,null
"Counseling Centre of Stuart, LLC Kevin Braley, LMHC",http://www.kevinbraleycounseling.com/,(772) 286-4613,"828 SW Palm City Rd, Stuart, FL 34994, USA",Stuart,null
Country Pet Ranch,https://www.countrypetranch.com/,(239) 494-3322,"11860 Red Hibiscus Dr, Bonita Springs, FL 34135, USA",Bonita Springs,null
Countryside at the Park Animal Clinic,http://countrysideanimalhospitaldeland.com/,(386) 337-7575,"1431 Orange Camp Rd #101, DeLand, FL 32724, USA",DeLand,null
Crazy 8 Ranch,http://www.crazyeightranch.com/,(850) 524-3484,"812 Sir Richard Rd, Tallahassee, FL 32310, USA",Tallahassee,null
Critter Creek Farm Sanctuary,https://crittercreekfarmsanctuary.org/,null,"12626 NW Co Rd 231, Gainesville, FL 32609, USA",Gainesville,null
Cumberland Animal Clinic,https://www.cumberlandpet.com/,(850) 616-7213,"6548 Shady Rest Rd, Havana, FL 32333, USA",Havana,null
Cutler Bay Animal Clinic,https://cutlerbayanimalclinic.com/,(305) 251-4244,"18966 S Dixie Hwy, Cutler Bay, FL 33157, USA",Cutler Bay,null
CVS Pharmacy,https://www.cvs.com/store-locator/tallahassee-fl-pharmacies/5670-n-monroe-st-tallahassee-fl-32303/storeid=4639?WT.mc_id=LS_GOOGLE_RX_4639,(850) 562-9348,"5670 N Monroe St, Tallahassee, FL 32303, USA",Tallahassee,null
CVS Pharmacy,https://www.cvs.com/store-locator/tallahassee-fl-pharmacies/5466-thomasville-rd-n-corner-of-kerry-forest-parkway-tallahassee-fl-32312/storeid=4024?WT.mc_id=LS_GOOGLE_RX_4024,(850) 893-8116,"5466 Thomasville Rd, Tallahassee, FL 32312, USA",Tallahassee,null
CVS Pharmacy,https://www.cvs.com/store-locator/tallahassee-fl-pharmacies/1708-n-monroe-st-tallahassee-fl-32303/storeid=710?WT.mc_id=LS_GOOGLE_RX_710,(850) 385-6136,"1708 N Monroe St, Tallahassee, FL 32303, USA",Tallahassee,null
CVS Pharmacy,https://www.cvs.com/store-locator/tallahassee-fl-pharmacies/3700-bradfordville-rd-tallahassee-fl-32309/storeid=17089?WT.mc_id=LS_GOOGLE_RX_17089,(850) 894-3239,"3700 Bradfordville Rd, Tallahassee, FL 32309, USA",Tallahassee,null
Cypress Village,https://cypressvillageretirement.com/?utm_source=google&utm_medium=organic&utm_campaign=gdseo_gmb_aug2020,(904) 507-4962,"4600 Middleton Park Cir E, Jacksonville, FL 32224, USA",Jacksonville,null
Cytowave,http://www.cytowave.com/,(844) 298-9283,"1201 Jupiter Park Dr, Jupiter, FL 33458, USA",Jupiter,null
D.O.G. of Jax,https://dogofjax.com/,(904) 473-0202,"4555 Wesconnett Blvd, Jacksonville, FL 32210, USA",Jacksonville,null
Dachshunds R Us!,null,(850) 778-5732,"3224 Emerson Ln, Tallahassee, FL 32317, USA",Tallahassee,null
Daft Cow Brewery,https://www.daftcowbrewery.com/,(352) 389-9787,"13800 Tech City Cir Suite 100, Alachua, FL 32615, USA",Alachua,null
Damron Counseling,https://www.damroncounseling.com/?utm_source=google&utm_medium=wix_google_business_profile&utm_campaign=2555425203947103637,(850) 290-2211,"738 E Park Ave, Tallahassee, FL 32301, USA",Tallahassee,null
Daniel De La Rosa - Dogs,http://www.danieldelarosadogs.com/,(954) 243-7189,"308 SW 16th St, Fort Lauderdale, FL 33315, USA",Fort Lauderdale,null
Danielle Dog Trainers,https://danielle-dog-trainers-llc.square.site/,(786) 727-7007,"18501 Pines Blvd Suite 301, Pembroke Pines, FL 33029, USA",Pembroke Pines,null
Davie Ranch,http://www.davieranch.com/,(954) 489-8835,"5780 SW 61st Ave, Davie, FL 33314, USA",Davie,null
Day & Evening Pet Hospital & Surgical Center,https://www.thrivepetcare.com/locations/florida/palm-harbor/day-and-evening-pet-hospital-surgical-center?utm_source=google&utm_medium=gmb,(727) 785-7200,"511 Magnolia Ave, Palm Harbor, FL 34683, USA",Palm Harbor,null
Daytona Beach Health and Rehabilitation Center,http://daytonabeachhealthandrehab.com/,(386) 252-3686,"1055 3rd St, Daytona Beach, FL 32117, USA",Daytona Beach,null
Debbie's Dog Training,http://www.debbiesdogtraining.com/,(561) 440-4252,"2955 Banyan Ln, Lake Park, FL 33403, USA",Lake Park,null
Deerwood Animal Clinic,http://www.deerwoodanimalclinic.com/,(904) 641-8685,"9968 Baymeadows Rd, Jacksonville, FL 32256, USA",Jacksonville,null
Deerwood Animal Clinic: Mc Millian Grant DVM,https://deerwoodanimalclinic.com/,(904) 641-8685,"9968 Old Baymeadows Rd, Jacksonville, FL 32256, USA",Jacksonville,null
Deerwood Animal Clinic: William Rebecca DVM,https://deerwoodanimalclinic.com/,(904) 641-8685,"9968 Old Baymeadows Rd, Jacksonville, FL 32256, USA",Jacksonville,null
"Delta Family Counseling, LLC",http://www.deltafamilycounseling.com/,(239) 540-1155,"2029 Clifford St, Fort Myers, FL 33901, USA",Fort Myers,null
Destiny For Dogs,http://www.destinyfordogs.com/,(561) 313-2005,"Mailing Address Only - Not a Shelter A Foster Based Rescue, 326 Macy St, West Palm Beach, FL 33405, USA",West Palm Beach,null
Dog Obedience Club of Lee County,https://www.doclc.com/,(239) 995-7110,"6351 Bayshore Rd, North Fort Myers, FL 33917, USA",North Fort Myers,null
Dog Training Club of St Pete,http://dtcsp.org/,(727) 527-5568,"4400 34th St N # B, St. Petersburg, FL 33714, USA",St. Petersburg,null
"Dog Training Club of Tampa, Inc",http://www.dtct.org/,(813) 931-7387,"6620 Garsh Lp, Tampa, FL 33614, USA",Tampa,null
DOG TRAINING ELITE BROWARD,https://dogtrainingelite.com/fort-lauderdale,(305) 407-3438,"1640 Town Center Cir #218, Weston, FL 33326, USA",Weston,null
Dog Training Elite Orlando,https://dogtrainingelite.com/orlando?location=orlando-fl,(407) 375-2079,"622 Virginia Dr, Orlando, FL 32803, USA",Orlando,null
Dog Training Elite Palm Beach County,https://dogtrainingelite.com/palm-beach-county,(561) 858-3647,"6742 Forest Hill Blvd #200, West Palm Beach, FL 33413, USA",West Palm Beach,null
Dog Training Elite Suncoast Facility,https://dogtrainingelite.com/suncoast,(727) 271-3733,"28921 US Hwy 19 N, Clearwater, FL 33761, USA",Clearwater,null
Dog Training Elite Treasure Coast Facility,https://dogtrainingelite.com/port-st-lucie,(772) 242-5060,"4104 Okeechobee Rd, Fort Pierce, FL 34947, USA",Fort Pierce,null
"Dog Training of Tampa Bay, Inc.",https://dogtrainingoftampabay.com/,(813) 707-1293,"3206 Bruton Rd, Plant City, FL 33565, USA",Plant City,null
Dog's Best Friend,https://www.dogtrainerorlando.com/,(321) 689-6725,"141 S Central Ave, Apopka, FL 32703, USA",Apopka,null
Dog2Doc,http://dog2doc.com/contact-us.html,(352) 371-8111,"4401 Newberry Rd, Gainesville, FL 32607, USA",Gainesville,null
Doggie Dayz Daycare Facility,http://doggiedayz.net/,(850) 297-2275,"3015 Powell Rd, Tallahassee, FL 32308, USA",Tallahassee,null
DoggyAirBNB,null,(904) 776-4851,"500 Clermont Ave S, Orange Park, FL 32073, USA",Orange Park,null
Dogifi Dog Training,https://www.dogi-fi.com/,(954) 865-5390,"2401 NE 10th Terrace, Pompano Beach, FL 33064, USA",Pompano Beach,null
Doglando,https://doglando.com/,(407) 574-3160,"12276 E Colonial Dr, Orlando, FL 32826, USA",Orlando,null
"Dogs In Bloom - Dog Training, LLC",https://www.dogsinbloomtraining.com/services,(772) 872-1582,"2852 SE Bakersfield St, Port St. Lucie, FL 34952, USA",Port St. Lucie,null
"Dogsense Obedience, Inc.",http://www.dogsenseobedience.com/,(863) 647-4557,"2910 Drane Field Rd, Lakeland, FL 33811, USA",Lakeland,null
DogSpeak,https://www.dogspeakcoach.com/,(850) 688-6239,"6776 Quail Valley Rd, Tallahassee, FL 32309, USA",Tallahassee,null
Dogtopia of Downtown Orlando,https://www.dogtopia.com/downtown-orlando/,(407) 801-6008,"1452 Alden Rd, Orlando, FL 32803, USA",Orlando,null
Double H Animal Massage Therapy and Rehabilitation,null,(863) 224-5452,"541 Old Bartow Lake Wales Rd, Bartow, FL 33830, USA",Bartow,null
DOWN RIGHT DOG TRAINING,http://www.downrightdogtraining.com/,(561) 666-8132,"622 El Vedado #1, West Palm Beach, FL 33405, USA",West Palm Beach,null
Downward Goat,https://www.downwardgoat.com/,(800) 435-7352,"6120 SW 173rd Way, Southwest Ranches, FL 33331, USA",Southwest Ranches,null
Dr. Christiana Marron - Physical Therapy Fort Lauderdale,https://physicaltherapyfortlauderdale.com/,(954) 902-7660,"800 E Broward Blvd #102, Fort Lauderdale, FL 33301, USA",Fort Lauderdale,null
"Dr. Farid Saleh, V.M.D.",http://www.ehrlichanimalhospital.com/about-us/veterinarians/,(813) 920-0566,"8009 Gunn Hwy, Tampa, FL 33626, USA",Tampa,null
"Dr. Giselle Faubel, PsyD",http://equulibrium.com/,(954) 661-8586,"18130 Spring Rd, Southwest Ranches, FL 33331, USA",Southwest Ranches,null
Dr. Lynn Sattesahn,http://www.brentwoodanimalclinic.com/,(904) 354-0547,"4605 Brentwood Ave, Jacksonville, FL 32206, USA",Jacksonville,null
Dr. TMS Therapy Griffith Psychiatry,https://drtmstherapy.com/?utm_campaign=gmb,(727) 334-1183,"5565 Dr M.L.K. Jr St N, St. Petersburg, FL 33703, USA",St. Petersburg,null
Dr.Stenzel Clearwater Animal Clinic,https://www.clearwateranimalclinic.com/,(727) 584-1151,"1639 S Missouri Ave, Clearwater, FL 33756, USA",Clearwater,null
Draxen Farms,http://draxenfarms.net/,(772) 342-6125,"1502 Trowbridge Rd, Fort Pierce, FL 34945, USA",Fort Pierce,null
Dyer Buggy Works,http://dyerbuggyworks.com/,(321) 480-4216,"24478 Evaline St, Brooksville, FL 34601, USA",Brooksville,null
Dynamite Dog Training,https://www.dynamitedogtraining.com/,(954) 515-6411,"5180 W Atlantic Ave #101-102, Delray Beach, FL 33484, USA",Delray Beach,null
Dynamite Dog Training,http://www.dynamitedogtraining.com/,(954) 909-0172,"859 E Oakland Park Blvd, Oakland Park, FL 33334, USA",Oakland Park,null
Dynamite Dog Training,http://www.dynamitedogtraining.com/,(954) 515-6411,"1809 Powerline Rd STE 106, Deerfield Beach, FL 33442, USA",Deerfield Beach,null
East Bay Rehabilitation Center,http://eastbayrehab.com/,(727) 530-7100,"4470 E Bay Dr, Clearwater, FL 33764, USA",Clearwater,null
Eastside Acres Ranch,https://www.eastsideacres.com/?utm_source=google&utm_medium=wix_google_business_profile&utm_campaign=12944360006495327527,(772) 405-7165,"6740 Ideal Holding Rd, Port St. Lucie, FL 34987, USA",Port St. Lucie,null
Eclipse Sporthorses LLC,http://www.eclipsesporthorses.com/,(352) 283-3722,"14910 SW County Rd 346, Archer, FL 32618, USA",Archer,null
Edgewood Animal Clinic,https://edgewoodanimalclinic.net/,(863) 688-8301,"1708 E Edgewood Dr, Lakeland, FL 33803, USA",Lakeland,null
Edgewood Children's Ranch,https://edgewoodranch.com/,(407) 295-2464,"1451 Edgewood Ranch Rd, Orlando, FL 32835, USA",Orlando,null
El secreto EHTC,https://api.whatsapp.com/send?phone=17864616883&fbclid=PAQ0xDSwMYFNtleHRuA2FlbQIxMQABp4T6iCMK62JQo5s5gcQbwf7TNLCJoh5kCnzgGogW18QpQtUh_f-vD6SU44y-_aem_MyH-vG50MQHglDUkiZXIwQ,(786) 461-6883,"6155 SW 120th Ave, Miami, FL 33183, USA",Miami,null
Elite DNA Behavioral Health Therapy & Psychiatry Clinic - Orange Park,https://elitedna.com/locations/orange-park/?utm_source=gmb&utm_medium=organic&utm_campaign=orange-park-1&utm_content=main-link,(904) 458-7780,"1542 Kingsley Ave 136 137, Orange Park, FL 32073, USA",Orange Park,null
Elite DNA Behavioral Health Therapy & Psychiatry Clinic - Stuart,https://elitedna.com/locations/stuart/?utm_source=gmb&utm_medium=organic&utm_campaign=stuart&utm_content=main-link,(772) 210-7554,"1111 SE Federal Hwy Ste #334, Stuart, FL 34994, USA",Stuart,null
Elite Professional Dog Training,https://eliteprodogtraining.com/,(844) 404-0732,"5001 N Ronald Reagan Blvd, Sanford, FL 32773, USA",Sanford,null
Elite Professional Dog Training,https://eliteprodogtraining.com/,(407) 732-4437,"5323 Lanyard Ct, Winter Park, FL 32792, USA",Winter Park,null
Ellie Mental Health,https://elliementalhealth.com/locations/estero-fl/,(239) 494-3951,"22904 Lyden Dr Suite 104, Estero, FL 33928, USA",Estero,null
Elysian Stables Miami,null,(786) 287-0771,"5895 SW 125th Ave, Miami, FL 33183, USA",Miami,null
Empowering Minds Therapy,http://care.headway.co/providers/gissele-ponce,(786) 264-2385,"11200 SW 8th St, Miami, FL 33199, USA",Miami,null
Encompass Health Rehabilitation Hospital of Cape Coral,https://www.encompasshealth.com/locations/cape-coral-rehab?utm_source=google&utm_medium=organic&utm_campaign=gbp,null,"1730 NE Pine Island Rd, Cape Coral, FL 33909, USA",Cape Coral,null
Encompass Health Rehabilitation Hospital of Jacksonville,https://www.encompasshealth.com/locations/jacksonville-rehab?utm_source=google&utm_medium=organic&utm_campaign=gbp,(904) 596-5000,"11595 Burnt Mill Rd, Jacksonville, FL 32256, USA",Jacksonville,null
Encompass Health Rehabilitation Hospital of Kissimmee,https://www.encompasshealth.com/locations/kissimmee-rehab?utm_source=google&utm_medium=organic&utm_campaign=gbp,(321) 286-3300,"4950 Calypso Cay Way, Kissimmee, FL 34746, USA",Kissimmee,null
Engedi Farm,https://engedifarm.com/,(904) 534-4043,"10263 Plummer Rd, Jacksonville, FL 32219, USA",Jacksonville,null
Envision Mindcare,https://envisionmcare.com/,(786) 220-1969,"3000 Biscayne Blvd Suite 216, Miami, FL 33137, USA",Miami,null
Envision Mindcare,https://envisionmcare.com/,(786) 220-1969,"12 SE 7th St #705, Fort Lauderdale, FL 33301, USA",Fort Lauderdale,null
Equestrian Aid Foundation,http://www.equestrianaidfoundation.org/,(800) 792-6068,"11924 W. Forest Hill Blvd., Suite 10A-377, Wellington, FL 33414, USA",Wellington,null
Equestrian Inc.,https://www.equestrianinc.org/,(813) 410-9982,"2214 Fairfield Ave, Brandon, FL 33510, USA",Brandon,null
EquiKneads,http://www.equikneads.com/,(561) 345-0956,"13700 U.S. Rte 1 STE 202A, Juno Beach, FL 33408, USA",Juno Beach,null
Equilux Show Stables,null,(954) 257-0470,"15721 SW 51st Manor, Southwest Ranches, FL 33331, USA",Southwest Ranches,null
Equine Angels Foundation,https://www.equineangelsfoundation.org/,null,"7167 Foster Ln, Orlando, FL 32818, USA",Orlando,null
Equine Elixirs,https://www.equineelixirs.com/,(561) 818-4222,"3133 Fortune Way #16, Wellington, FL 33414, USA",Wellington,null
Equine Hyperbaric Center of South Florida,http://equinehyperbariccenter.com/,(561) 890-4889,"1630 F Rd, Loxahatchee, FL 33470, USA",Loxahatchee,null
Equine Interactions of Palm Beach County,null,(561) 294-5225,"5513 Courtney Cir, Boynton Beach, FL 33472, USA",Boynton Beach,null
Equine Rescue & Adoption Foundation,http://www.eraf.org/,(772) 220-0150,"6400 SW Martin Hwy, Palm City, FL 34990, USA",Palm City,null
Equine Ultrasound Therapy,http://equltrasound.com/,(386) 868-0618,"1368 U.S. Rte 1 Suite 402, Ormond Beach, FL 32174, USA",Ormond Beach,null
"Equines & Equestrians, Inc.",http://www.eandehorses.com/,(954) 650-4324,"16528 Winners Cir # 6, Delray Beach, FL 33446, USA",Delray Beach,null
Esperanza Equine Connections,null,(786) 449-6298,"12600 SW 45th St, Miami, FL 33175, USA",Miami,null
European Sport Horses,null,(305) 778-9219,"4990 Volunteer Rd, Southwest Ranches, FL 33330, USA",Southwest Ranches,null
Eve's Loving Care LLC,http://eveslovingcarellc.com/,(904) 480-9497,"9770 Baymeadows Rd Suite 127, Jacksonville, FL 32256, USA",Jacksonville,null
Evolutionary Dog Training,http://evolutionarydogtraining.com/,(954) 507-7524,"Inside Auggieâ€™s Pet Supply and Spa, 1918 S Andrews Ave, Fort Lauderdale, FL 33316, USA",Fort Lauderdale,null
Evolutions Treatment Center,https://evolutionstreatment.com/,(800) 795-8527,"2901 W Cypress Creek Rd #123, Fort Lauderdale, FL 33309, USA",Fort Lauderdale,null
Eye Care for Animals - Tampa,https://www.thrivepetcare.com/locations/florida/tampa/eye-care-for-animals-tampa?utm_source=gmb&utm_medium=web,(813) 881-9799,"5406 Hoover Blvd STE 20, Tampa, FL 33634, USA",Tampa,null
F.R.I.E.N.D.S. Horse Rescue and Sanctuary FLORIDA RESEARCH INSTITUTE for EQUINE NURTURING DEVELOPMENT & SAFETY,https://www.eiahorses.org/,(954) 609-5943,"Mailing Address: 1840 NE 65 Court, Ft. Lauderdale, FL 33308 ~~~> SITE:, 19801 Sheridan St, Southwest Ranches, FL 33332, USA",Southwest Ranches,null
Faith Farm Christian Residential Treatment Center,https://www.faithfarm.org/,(844) 946-8253,"1980 NW 9th Ave, Fort Lauderdale, FL 33311, USA",Fort Lauderdale,null
Faith Farm Christian Residential Treatment Center,http://www.faithfarm.org/,(844) 946-8253,"9538 US-441, Boynton Beach, FL 33472, USA",Boynton Beach,null
Faith in Recovery,https://faith.banyantreatmentcenter.com//?utm_source=GMBlisting&utm_medium=organic,(954) 866-5243,"950 N Federal Hwy #201, Pompano Beach, FL 33062, USA",Pompano Beach,null
Faithful Friends Pet Cremation,http://www.faithfulfriendscremation.com/,(813) 788-3065,"5221 8th St, Zephyrhills, FL 33542, USA",Zephyrhills,null
Fallen Oak Equestrian,null,null,"1115 Popolee Rd, Jacksonville, FL 32259, USA",Jacksonville,null
Family Horse Academy,https://familyhorseacademy.com/,(786) 413-6586,"17911 SW 63rd Manor, Southwest Ranches, FL 33331, USA",Southwest Ranches,null
Farasi Farm LLC,http://www.farasifarmllc.com/,(239) 410-0692,"6341 Staley Farms Rd, Fort Myers, FL 33905, USA",Fort Myers,null
FireAnt Farm Equestrian Center,http://www.fireantfarm.com/,(727) 741-1262,"2690 Keystone Rd, Tarpon Springs, FL 34688, USA",Tarpon Springs,null
Fireline Farms,http://www.firelinefarms.com/,(305) 615-3031,"6310 SW 185th Way, Southwest Ranches, FL 33332, USA",Southwest Ranches,null
First Option Canine,https://firstoptionk9.com/,(954) 304-1459,"4455 Sol Press Blvd, Coconut Creek, FL 33073, USA",Coconut Creek,null
"Florida Autism Center Clearwater, a division of BlueSprig",https://www.bluesprigautism.com/centers/florida/florida-autism-center-clearwater/?utm_source=google&utm_medium=organic&utm_campaign=gbp,(727) 351-4191,"29228 US Hwy 19 N, Clearwater, FL 33761, USA",Clearwater,null
"Florida Autism Center Daytona Beach, a division of BlueSprig",https://www.bluesprigautism.com/centers/florida/florida-autism-center-daytona-beach/?utm_source=google&utm_medium=organic&utm_campaign=gbp,(386) 267-3161,"500 Health Blvd Suite 100, Daytona Beach, FL 32114, USA",Daytona Beach,null
"Florida Autism Center Fort Myers, a division of BlueSprig",https://www.bluesprigautism.com/centers/florida/florida-autism-center-fort-myers/?utm_source=google&utm_medium=organic&utm_campaign=gbp,(239) 677-3767,"4085 Hancock Bridge Pkwy STE 101, North Fort Myers, FL 33903, USA",North Fort Myers,null
"Florida Autism Center Jacksonville, a division of BlueSprig",https://www.bluesprigautism.com/centers/florida/florida-autism-center-jacksonville-northwest/?utm_source=google&utm_medium=organic&utm_campaign=gbp,(904) 420-2304,"45 Alabama Ave, Jacksonville, FL 32218, USA",Jacksonville,null
"Florida Autism Center Lehigh Acres, a division of BlueSprig",https://www.bluesprigautism.com/centers/florida/florida-autism-center-lehigh-acres/?utm_source=google&utm_medium=organic&utm_campaign=gbp,(239) 932-2220,"5220 Lee Blvd, Lehigh Acres, FL 33971, USA",Lehigh Acres,null
"Florida Autism Center Melbourne, a division of BlueSprig",https://www.bluesprigautism.com/centers/florida/florida-autism-center-melbourne/?utm_source=google&utm_medium=organic&utm_campaign=gbp,(321) 235-6199,"1535 W NASA Blvd Unit C-1, Melbourne, FL 32901, USA",Melbourne,null
"Florida Autism Center New Port Richey, a division of BlueSprig",https://www.bluesprigautism.com/centers/florida/florida-autism-center-new-port-richey/?utm_source=google&utm_medium=organic&utm_campaign=gbp,(727) 364-2212,"7326 Little Rd, New Port Richey, FL 34654, USA",New Port Richey,null
"Florida Autism Center Orange Park, a division of BlueSprig",https://www.bluesprigautism.com/centers/florida/florida-autism-center-orange-park/?utm_source=google&utm_medium=organic&utm_campaign=gbp,(904) 602-9740,"1567 Kingsley Ave, Orange Park, FL 32073, USA",Orange Park,null
"Florida Autism Center Palm Beach Gardens, a division of BlueSprig",https://www.bluesprigautism.com/centers/florida/florida-autism-center-palm-beach-gardens/?utm_source=google&utm_medium=organic&utm_campaign=gbp,(561) 260-5900,"2979 PGA Blvd #200, Palm Beach Gardens, FL 33410, USA",Palm Beach Gardens,null
"Florida Autism Center Port St. Lucie, a division of BlueSprig",https://www.bluesprigautism.com/centers/florida/florida-autism-center-port-st-lucie/?utm_source=google&utm_medium=organic&utm_campaign=gbp,(772) 207-1356,"247 SW Port St Lucie Blvd, Port St. Lucie, FL 34984, USA",Port St. Lucie,null
"Florida Autism Center Spring Hill, a division of BlueSprig",https://www.bluesprigautism.com/centers/florida/florida-autism-center-spring-hill/?utm_source=google&utm_medium=organic&utm_campaign=gbp,(352) 505-9428,"4235 Rachel Blvd, Spring Hill, FL 34607, USA",Spring Hill,null
"Florida Autism Center Tallahassee, a division of BlueSprig",https://www.bluesprigautism.com/centers/florida/florida-autism-center-tallahassee/?utm_source=google&utm_medium=organic&utm_campaign=gbp,(850) 391-6060,"2868 Mahan Dr Unit 25,26,27, Tallahassee, FL 32308, USA",Tallahassee,null
"Florida Autism Center Westchase, a division of BlueSprig",https://www.bluesprigautism.com/centers/florida/florida-autism-center-westchase/?utm_source=google&utm_medium=organic&utm_campaign=gbp,(813) 467-7190,"12725 Race Track Rd, Westchase, FL 33626, USA",Westchase,null
Florida Cancer Specialists & Research Institute,https://flcancer.com/location/tallahassee-cancer-center/,(850) 877-8166,"2351 Phillips Rd, Tallahassee, FL 32308, USA",Tallahassee,null
Florida Coast Canine,https://www.floridacoastcanine.com/,(813) 924-2784,"4111 E Knights Griffin Rd, Plant City, FL 33565, USA",Plant City,null
Florida Dog Academy,http://floridadogacademy.net/,(772) 285-4384,"7551 Citrus Blvd, Palm City, FL 34990, USA",Palm City,null
Florida Oasis Residential Mental Health,https://thefloridaoasis.org/?utm_source=omg-listings&utm_medium=webclick,(561) 249-1174,"143 Silver Beach Rd, Lake Park, FL 33403, USA",Lake Park,null
Florida Ranch Sorting Arena,http://floridaranchsorting.com/,null,"2423 Welcome Rd, Lithia, FL 33547, USA",Lithia,null
"Florida Wildlife Hospital, Inc",http://www.floridawildlifehospital.org/,(321) 254-8843,"4560 U.S. Rte 1, Melbourne, FL 32935, USA",Melbourne,null
Floridean Nursing and Rehabilitation Center,null,(305) 649-2911,"47 NW 32nd Pl, Miami, FL 33125, USA",Miami,null
Fluffy Divine The Pet Spa,https://sites.google.com/view/fluffydivine/home,(813) 424-9246,"602 W Dr Martin Luther King Jr Blvd, Brooksville, FL 34601, USA",Brooksville,null
Fluid Form Studio,http://ormondfluidform.com/,(386) 366-1769,"290 N Nova Rd, Ormond Beach, FL 32174, USA",Ormond Beach,null
Flying Changes Equestrian Center,null,(407) 383-0952,"5222 N Indiana Ave, Winter Park, FL 32792, USA",Winter Park,null
FLYING COLORS FARM,null,(850) 508-0250,"6659 Proctor Rd, Tallahassee, FL 32309, USA",Tallahassee,null
Footprints Beachside Recovery,https://www.footprintsbeachside.com/?utm_source=google&utm_medium=organic&utm_campaign=knowledge-panel-and-local-3-pack,(727) 855-6642,"9641 Gulf Blvd Suite B, Treasure Island, FL 33706, USA",Treasure Island,null
For Horse Rehab,null,(971) 226-0010,"13224 Polo Club Rd, Wellington, FL 33414, USA",Wellington,null
Forever Equestrian LLC,http://www.sportstablesmiami.com/,(305) 360-4104,"19525 SW 142nd Ave, Miami, FL 33177, USA",Miami,null
Forever Love Puppies Ft. Lauderdale,https://954puppies.com/puppy-stores/ft-lauderdale?utm_campaign=gmb,(954) 228-9942,"4157 N State Rd 7, Lauderdale Lakes, FL 33319, USA",Lauderdale Lakes,null
Fort Lauderdale Behavioral Health Center,https://ftlauderdalebehavioral.com/,(800) 585-7527,"5757 N Dixie Hwy, Oakland Park, FL 33334, USA",Oakland Park,null
Fort Myers Rehabilitation and Nursing Center,http://www.fortmyersrehab.com/,(239) 936-0203,"7173 Cypress Dr, Fort Myers, FL 33907, USA",Fort Myers,null
Foster's Pet Cremation Service,http://fosterspetcremation.com/,(727) 856-7566,"15204 County Line Rd, Spring Hill, FL 34610, USA",Spring Hill,null
Foundations Wellness Center,https://www.foundationswellness.net/,(772) 361-6778,"160 NW Central Park Plaza Suites 108 & 110, Port St. Lucie, FL 34986, USA",Port St. Lucie,null
Fountains Rehabilitation at Mill Cove,https://fountainsmc.com/,(904) 724-4726,"9960 Atrium Way, Jacksonville, FL 32225, USA",Jacksonville,null
Freedom Riders Academy,null,(561) 201-7884,"502 W Rambling Dr, Wellington, FL 33414, USA",Wellington,null
Freedom's Rein Equine Services,null,(240) 587-8384,"331 SE 3rd Ave, Delray Beach, FL 33483, USA",Delray Beach,null
Full Circle,null,null,"5421 SW Grove St, Palm City, FL 34990, USA",Palm City,null
Funky Dog Improv,http://www.funkydogfl.com/live-comedy-melbourne-fl,(321) 345-6657,"587 W Eau Gallie Blvd #101, Melbourne, FL 32935, USA",Melbourne,null
Furry Friends Humane,https://www.furryfriendsadoption.org/,(561) 747-5311,"100 Capital St, Jupiter, FL 33458, USA",Jupiter,null
Gainesville Acupuncture & Holistic Medicine,https://gnvacupuncture.com/,(352) 672-1181,"4040 Newberry Rd Ste 1500, Gainesville, FL 32607, USA",Gainesville,null
Gainesville Canine Academy,http://www.gainesvillecanineacademy.com/,(352) 226-0228,"4131 NW 13th St #104, Gainesville, FL 32609, USA",Gainesville,null
Gainesville Holistic Healthcare,https://www.gainesvilleholistichealthcare.com/,(352) 727-7070,"4001 Newberry Rd Ste. A-3, Gainesville, FL 32607, USA",Gainesville,null
Gaining Wellness,http://www.gainingwellness.com/,(386) 453-0631,"1184 Pelican Bay Dr, Daytona Beach, FL 32119, USA",Daytona Beach,null
GALAXY FARMS,http://galaxyfarms.us/,(813) 679-7419,"13724 Canterfield Dr, Riverview, FL 33579, USA",Riverview,null
Gateway Post-Acute Care Center,https://gatewayhcs.com/,(727) 541-7515,"8600 US Hwy 19 N, Pinellas Park, FL 33782, USA",Pinellas Park,null
Gator A Dog Training,http://gatoradogtraining.com/,(337) 258-3337,"13608 Coronado Dr, Spring Hill, FL 34609, USA",Spring Hill,null
Genesis service dogs,null,null,"Palm Beach, FL 33480, USA",Palm Beach,null
Genesis Zoology Center,http://www.genesiszoological.org/,(863) 965-8706,"747 Howard Rd, Auburndale, FL 33823, USA",Auburndale,null
Gentle Pet Crossing - Aquamation/Euthanasia Services,https://gentlepetcrossing.com/,(772) 446-0526,"10987 U.S. Rte 1, Port St. Lucie, FL 34952, USA",Port St. Lucie,null
GET YOUR PET CERTIFIED,null,(561) 639-0190,"378 Northlake Blvd Unit 145, North Palm Beach, FL 33408, USA",North Palm Beach,null
Giving A Dog A Bone LLC,http://givingadogabone.com/,(772) 600-8435,"4213 SE Graham Dr, Stuart, FL 34997, USA",Stuart,null
Global Animal Services,null,(305) 992-3571,"251 Valencia Ave #145372, Coral Gables, FL 33114, USA",Coral Gables,null
Glover's Stables,http://www.gloverenterprises.com/,(352) 279-9054,"20014 Twin Oaks Rd, Spring Hill, FL 34610, USA",Spring Hill,null
Go Healthy Pet,http://www.gohealthypet.com/,(954) 712-1226,"2209 N Dixie Hwy, Wilton Manors, FL 33305, USA",Wilton Manors,null
Golden Gate Equestrian,https://goldengateeq.com/,(352) 283-1025,"8001 Clarcona Ocoee Rd, Orlando, FL 32818, USA",Orlando,null
Golden Rainbow Ranch,http://www.goldenrainbowranch.com/,(727) 481-6002,"14412 Snow Memorial Hwy, Brooksville, FL 34601, USA",Brooksville,null
GoldenDoodles Cape Coral,https://goldendoodlescapecoral.com/,(239) 910-6214,"204 SE 46th St, Cape Coral, FL 33904, USA",Cape Coral,null
Good Behavior Dog Training,https://goodbehaviordogtraining.com/,(352) 208-4034,"17025 Whirley Rd, Lutz, FL 33558, USA",Lutz,null
Good Care Animal Clinic,https://www.goodcareanimalclinic.com/,(305) 220-0102,"1559 SW 107th Ave Suite B, Miami, FL 33174, USA",Miami,null
Granny Nannies Senior Home Care of St. Petersburg,https://grannynannies.com/Saint-Petersburg?utm_source=GoogleBusinessProfile&utm_medium=Website&utm_campaign=MapLabs,(727) 855-6197,"2836 5th Ave N, St. Petersburg, FL 33713, USA",St. Petersburg,null
Great Scott Dog Training,http://www.greatscottdogtraining.com/,(321) 482-7451,"540 Waterman Ln SE, Palm Bay, FL 32909, USA",Palm Bay,null
Green Glades Ranch,http://www.alligatorronbergeron.com/,(954) 680-6100,"21111 SW 16th St, Weston, FL 33332, USA",Weston,null
"Green, Mary DVM - Westside Animal Clinic",http://www.wacspringhill.com/,(352) 683-1512,"3501 Commercial Way, Spring Hill, FL 34606, USA",Spring Hill,null
Gregg L. Friedman MD,null,(954) 456-1996,"2500 E Hallandale Beach Blvd #702, Hallandale Beach, FL 33009, USA",Hallandale Beach,null
Gregory Ranch,https://gregoryranchnfm.net/,(239) 785-9454,"8401 Henderson Grade, North Fort Myers, FL 33917, USA",North Fort Myers,null
Greta Wrigley Training,null,null,"5916 NW 58 Ave, Alachua, FL 32615, USA",Alachua,null
Greystone Equestrian Center,null,(239) 567-3171,"18801 Lynn Rd, Fort Myers, FL 33917, USA",Fort Myers,null
Groovy Goat Farm,http://www.groovygoatfarm.com/,(561) 777-9111,"11667 165th Rd N, Jupiter, FL 33478, USA",Jupiter,null
Growing Together Behavioral Center,https://gtbjax.org/,(904) 379-6045,"1725 Art Museum Dr, Jacksonville, FL 32207, USA",Jacksonville,null
Grune Heidi Farm Rescue,http://www.gruneheidifarmrescue.org/,(863) 286-7377,"4713 Swindell Rd, Lakeland, FL 33810, USA",Lakeland,null
Guardian Recovery - Immersion Outpatient,https://www.immersionrecovery.com/,(561) 529-9008,"3333 S Congress Ave #401, Delray Beach, FL 33445, USA",Delray Beach,null
Gulf Coast Breeding Services,http://gulfcoastcorso.com/,(239) 834-2656,"9001 Palomino Oaks Dr, Fort Myers, FL 33912, USA",Fort Myers,null
H.K. Dog Training,https://www.hkdogtraining.net/,(239) 309-1348,"5600 Higginbotham Rd, Fort Myers, FL 33905, USA",Fort Myers,null
Haggerty Dog Training of Florida,https://www.haggertydog.com/,(561) 789-5628,"1950 SE Carvalho St, Port St. Lucie, FL 34983, USA",Port St. Lucie,null
Haile Plantation Animal Clinic,https://www.haileanimalclinic.com/,(352) 377-6003,"5231 SW 91st Dr, Gainesville, FL 32608, USA",Gainesville,null
Halifax Health - Child & Adolescent Behavioral Services,https://halifaxhealth.org/services/child-adolescent-behavioral-services,(386) 425-3900,"841 Jimmy Ann Dr, Daytona Beach, FL 32117, USA",Daytona Beach,null
"Halifax Humane Society, Inc. - Redinger Spay & Neuter Clinic",https://www.halifaxhumanesociety.org/spay-neuter-clinic/index,(386) 202-6633,"600 Mason Ave suite 150, Daytona Beach, FL 32117, USA",Daytona Beach,null
Halt,https://halt2help.com/contact-1,(561) 452-0089,"17759 128th Trail N, Jupiter, FL 33478, USA",Jupiter,null
HAPPI Farm,http://www.happifarm.org/,(954) 629-8133,"10251 Orange Dr, Davie, FL 33328, USA",Davie,null
Happiness Horse Farm and Will's Way Animal Sanctuary,https://www.happinesshorsefarm.org/,(321) 626-9396,"951 Happiness Ave SW, Palm Bay, FL 32908, USA",Palm Bay,null
Happy Hooves Equine Encounters,null,(352) 464-3295,"2921 E Stage Coach Trail, Inverness, FL 34452, USA",Inverness,null
Happy Paws Ranch,http://www.happypawsranch.com/,(239) 567-0234,"8951 Nalle Grade Rd, North Fort Myers, FL 33917, USA",North Fort Myers,null
Happy Paws US,https://www.happypawsus.com/,(754) 801-5855,"158 N University Dr, Pembroke Pines, FL 33024, USA",Pembroke Pines,null
Happy Tails Canine Services,https://happytailscanineservices.com/,(954) 993-0176,"12099 86th Rd N, West Palm Beach, FL 33412, USA",West Palm Beach,null
Happy Tails Farm,https://www.facebook.com/Thehappytailfarm/,(727) 637-1549,"18635 Phillips Rd, Masaryktown, FL 34604, USA",Masaryktown,null
Happy Trails Animal Rescue,https://happytrailsanimalrescue.com/,(407) 270-7074,"1720 N Goldenrod Rd Suite 8, Orlando, FL 32807, USA",Orlando,null
Harmony Hope Stables,https://hhstables.org/,(954) 892-3788,"5010 SW 69th St, Palm City, FL 34990, USA",Palm City,null
Hart's Pet Sitting,null,(760) 586-8020,"12 Sea Gull Dr, Ormond Beach, FL 32176, USA",Ormond Beach,null
Hasenbeck Equestrian,http://hasenbeckequestrian.com/,(727) 492-3325,"9701 Janice Ln, Largo, FL 33773, USA",Largo,null
Hayes Show Horses,null,null,"1100 Tilton Rd, Port St. Lucie, FL 34952, USA",Port St. Lucie,null
HEAL Behavioral Health - Palm Beach Luxury Rehab,https://healtreatmentcenters.com/?utm_campaign=gmb,(561) 781-5915,"105 S Narcissus Ave Suite 309, West Palm Beach, FL 33401, USA",West Palm Beach,null
Healing Hands for Pets,https://www.healinghandspets.com/,(727) 687-8435,"3021 Lown St N, St. Petersburg, FL 33713, USA",St. Petersburg,null
Healing Heart,http://www.healingheartvet.com/,(561) 740-1313,"222 Boynton Beach Blvd, Boynton Beach, FL 33435, USA",Boynton Beach,null
Healing Paws Center,http://healingpawsfl.com/,(954) 955-8888,"854 E Oakland Park Blvd, Oakland Park, FL 33334, USA",Oakland Park,null
Healing Paws-Abilities LLC,http://www.healingpawsabilities.com/,(239) 281-7777,"3100 Del Prado Blvd S #6th, Cape Coral, FL 33904, USA",Cape Coral,null
Healing Pawsabilities,https://healingpawsabilities.com/,(239) 281-7777,"1400 Colonial Blvd #251, Fort Myers, FL 33907, USA",Fort Myers,null
Healing Psychiatry of Florida,https://www.healingpsychiatryflorida.com/,(321) 972-9215,"108 W Citrus St, Altamonte Springs, FL 32714, USA",Altamonte Springs,null
Health First AdventHealth Employer Care Brevard,https://centracare.adventhealth.com/urgent-care/health-first-adventhealth-centra-care-employer-care-brevard,(321) 608-4814,"1223 Gateway Dr #1E, Melbourne, FL 32901, USA",Melbourne,null
Healthy Pawsibilities,http://www.healthypawsibilities.com/,(727) 510-3665,"2189 Cleveland St #256, Clearwater, FL 33765, USA",Clearwater,null
Heart and Soul Dog Breeding,http://www.heartsoulk9breeding.com/,(386) 266-9799,"5926 SW 86th Dr, Gainesville, FL 32608, USA",Gainesville,null
Heartland Haven Foundation,https://heartlandhavenfoundation.org/shops/,(321) 356-7378,"590 N Lake Pleasant Rd, Apopka, FL 32712, USA",Apopka,null
Heavenly Paws House Calls,http://www.heavenlypawshc.com/,(407) 329-4001,"207 W Plant St # 771062, Winter Garden, FL 34787, USA",Winter Garden,null
Heel 2 Heal Dog Training,http://www.heel2heal.net/,(561) 512-7632,"Maddock St, West Palm Beach, FL 33405, USA",West Palm Beach,null
"Helping Hands PPEC, Inc",http://www.helpinghandspediatric.com/,(305) 960-7543,"7100 W 20th Ave g126, Hialeah, FL 33016, USA",Hialeah,null
Here's Help Inc,http://www.hereshelpinc.com/,(305) 685-8201,"15100 NW 27th Ave, Opa-locka, FL 33054, USA",Opa-locka,null
Hidden Bear Farm,https://hiddenbearfarm.com/,null,"18382 E County Rd 1474, Hawthorne, FL 32640, USA",Hawthorne,null
Hidden Fields Private Stable,http://www.hiddenfieldsjax.com/,(904) 254-5058,"2259 Forest Blvd, Jacksonville, FL 32246, USA",Jacksonville,null
Hidden Meadow Farms,http://www.hiddenmeadowllc.com/,(813) 777-2061,"8231 County Rd 39, Plant City, FL 33567, USA",Plant City,null
Hidden Palms Ranch,http://hiddenpalmsranch.com/,(407) 620-7880,"1410 Oakway, Sanford, FL 32773, USA",Sanford,null
Hip Dog Canine Hydrotherapy,http://www.hipdogcaninehydrotherapy.com/,(407) 921-5956,"1860 Anzle Ave, Winter Park, FL 32789, USA",Winter Park,null
Hippocrates Wellness,https://hippocrateswellness.org/,(561) 471-8876,"1466 Hippocrates Way, West Palm Beach, FL 33411, USA",West Palm Beach,null
Holistic Horse Health,null,(904) 779-2590,"10102 Parman Rd, Jacksonville, FL 32222, USA",Jacksonville,null
Hollywoof Pet Resort,https://hollywoofpetresort.com/,(863) 644-8152,"5845 Brannen Rd S, Lakeland, FL 33813, USA",Lakeland,null
Hooves of Love Farm Foundation,null,(786) 547-3487,"6620 Holatee Trail, Southwest Ranches, FL 33330, USA",Southwest Ranches,null
Hope Hospice,https://hopehospice.org/,(239) 482-4673,"2430 Diplomat Pkwy E, Cape Coral, FL 33909, USA",Cape Coral,null
"Horizon Horses and More, Corp",http://ridinghorses.miami/,(786) 686-1063,"6605 SW 127th Ave, Miami, FL 33183, USA",Miami,null
Horse Academy South,http://www.horseandsun.com/,(239) 693-0385,"3911 Williamson Rd, Fort Myers, FL 33905, USA",Fort Myers,null
"HORSE CONNECTION THERAPY, INC",null,null,"212 S St Cloud Ave, Valrico, FL 33594, USA",Valrico,null
Horse Haven Rescue Inc,http://horsehavenrescue.com/,(772) 621-0067,"1100 Tilton Rd, Port St. Lucie, FL 34952, USA",Port St. Lucie,null
Horse Protection Association of Florida,https://hpaf.org/,(352) 466-4366,"20690 NW 130th Ave, Micanopy, FL 32667, USA",Micanopy,null
Horse rescue,null,null,"11500 SW 16th St, Davie, FL 33325, USA",Davie,null
HORSE TALES An Equine Assisted Speech Language Therapy Clinic,null,(352) 538-6177,"7624 NE 62 Dr, Gainesville, FL 32609, USA",Gainesville,null
"Horse Tales Ranch where ""Every Horse has a Tale to be Told""",https://horsetalesranch.com/,(954) 260-4804,"2995 SW 121st Ave, Davie, FL 33330, USA",Davie,null
"HORSE Therapies, Inc.",http://jaxhorsetherapies.org/,(904) 255-4228,"13611 Normandy Blvd, Jacksonville, FL 32221, USA",Jacksonville,null
Horseback Riding Tours and Adventures Cypress Breeze Farm,http://www.cypressbreezefarm.com/,(727) 460-0891,"6384 98th Ave N, Pinellas Park, FL 33782, USA",Pinellas Park,null
horsefleet academy,http://www.horsefleet.com/,(813) 546-7137,"18808 Boyette Rd, Lithia, FL 33547, USA",Lithia,null
HorsePower for Kids & Animal Sanctuary,https://www.horsepowerforkids.com/,(813) 855-8992,"8005 Racetrack Rd, Tampa, FL 33635, USA",Tampa,null
Horses for Handicapped Foundation of Pinellas County,null,(727) 744-9776,"9610 125th St, Seminole, FL 33772, USA",Seminole,null
Horses N Heroes,https://www.horsesnheroes.org/,(352) 629-5280,"13618 Cambria Bay Ln, Delray Beach, FL 33446, USA",Delray Beach,null
HorseWork PBC,null,(561) 386-0031,"745 U.S. Rte 1 #210, North Palm Beach, FL 33408, USA",North Palm Beach,null
House of Wellness-Psychiatry Mental Health,http://www.myhouseofwellness.org/,(954) 662-0500,"4546 N Federal Hwy, Fort Lauderdale, FL 33308, USA",Fort Lauderdale,null
How Lyn Acres,null,(786) 351-3774,"4650 SW 163rd Ave, Southwest Ranches, FL 33331, USA",Southwest Ranches,null
Human Animal Life Foundation,https://humananimallife.org/contacts/,(352) 424-9312,"18340 Powell Rd, Brooksville, FL 34604, USA",Brooksville,null
Humane Society of Broward County,https://humanebroward.com/,(954) 989-3977,"2070 Griffin Rd, Fort Lauderdale, FL 33312, USA",Fort Lauderdale,null
Humane Society of North Central Florida,http://www.humanesocietyncfl.org/,(352) 373-5855,"4205 NW 6th St, Gainesville, FL 32609, USA",Gainesville,null
Hunyuan Life Wellness Spa,http://www.hunyuan.org/,(561) 749-2090,"21301 Powerline Rd Suite 206, Boca Raton, FL 33433, USA",Boca Raton,null
Ideal Dog Training LLC,http://idealdogtraining.com/,(561) 373-0716,"15390 89th Pl N, Loxahatchee, FL 33470, USA",Loxahatchee,null
iDog Academy,https://idogacademy.com/,(786) 587-2759,"7070 SW 9th St, Miami, FL 33144, USA",Miami,null
Imperial Polk Obedience Club,https://www.ipoclakeland.org/,(863) 644-1227,"3611 Century Blvd, Lakeland, FL 33811, USA",Lakeland,null
In the Breeze Ranch,http://www.inthebreezeranch.com/,(813) 264-1919,"7514 Gardner Rd, Tampa, FL 33625, USA",Tampa,null
Indian River Animal Clinic,http://www.indianriveranimalclinic.com/,(386) 427-8339,"909 S Ridgewood Ave, Edgewater, FL 32132, USA",Edgewater,null
Indian River Dog Training Club,http://www.irdtc.org/,(321) 722-1222,"1651 Robert J Conlan Blvd NE, Palm Bay, FL 32905, USA",Palm Bay,null
Indian Street Animal Clinic,https://indianstreetvet.com/,(772) 781-9990,"1233 SE Indian St #101, Stuart, FL 34997, USA",Stuart,null
Innate Animal Communication,https://innateanimalcommunication.com/,(954) 931-3717,"7373 NW 82nd Terrace, Parkland, FL 33067, USA",Parkland,null
Inspired Acres,https://www.inspiredacresfl.org/,(727) 348-7104,"1743 Doncaster Rd, Clearwater, FL 33764, USA",Clearwater,null
Integrated Physical Therapy,https://www.iptmiami.com/,(305) 967-8976,"2142 NE 123rd St, North Miami, FL 33181, USA",North Miami,null
Ipoc,https://www.ipoclakeland.org/,(863) 644-1227,"3111 Century Blvd, Lakeland, FL 33811, USA",Lakeland,null
J & K Canine Academy Inc.,http://www.pepedogs.com/,(386) 454-3647,"10912 Rachael Blvd, Alachua, FL 32615, USA",Alachua,null
Jack's B Quick Boarding Resort,http://www.jacksbquick.com/,(850) 576-5552,"90 Capt James St, Crawfordville, FL 32327, USA",Crawfordville,null
Jacksonville Autistic Society Inc,http://jaxautisticsociety.com/,(904) 532-3512,"1800 Atlantic Blvd suite 4, Jacksonville, FL 32207, USA",Jacksonville,null
Jacksonville Community Pet Clinic - Beach,http://jacksonvillebeachpetclinic.com/,(904) 694-0541,"335 11th Ave N, Jacksonville, FL 32250, USA",Jacksonville,null
Jacksonville Community Pet Clinic - West,https://jacksonvillewestpetclinic.com/,(904) 337-0076,"5425 Verna Blvd, Jacksonville, FL 32205, USA",Jacksonville,null
Jacksonville Equestrian Center,http://jaxequestriancenter.com/,(904) 255-4254,"13611 Normandy Blvd, Jacksonville, FL 32221, USA",Jacksonville,null
Jazzy Pawz-n-Wagz Dog Training LLC,http://www.jazzypawznwagz.com/,(303) 931-4688,"625 SW Pueblo Terrace, Port St. Lucie, FL 34953, USA",Port St. Lucie,null
Jencare Skin Farm & Day Spa,http://shopjencare.com/,(954) 436-6227,"11607 Red Rd, Miramar, FL 33025, USA",Miramar,null
Jessieâ€™s Pool Canine Hydrotherapy,http://www.jessiespool.com/,(561) 509-6319,"222 Boynton Beach Blvd, Boynton Beach, FL 33435, USA",Boynton Beach,null
Jet Set University,https://jetsetpets.net/,(904) 853-6509,"1181 10th St S South, Jacksonville Beach, FL 32250, USA",Jacksonville Beach,null
"Jill's Next Door Dog Walking & Pet Services, LLC",https://www.jillsnextdoor.com/,(561) 544-7297,"3596 S Ocean Blvd APT 106, Boca Raton, FL 33487, USA",Boca Raton,null
Joey's Ranch,http://www.joeysranch.com/,(561) 688-6517,"6227 Gun Club Rd, West Palm Beach, FL 33415, USA",West Palm Beach,null
"JP's Dog Fulfillment & Training Services, LLC",http://www.jpdogfitness.com/,(352) 888-9445,"8316 NW 2nd Pl, Gainesville, FL 32607, USA",Gainesville,null
Juan Hidalgo Show Stables,null,(305) 563-1158,"5900 SW 123rd Ave, Miami, FL 33183, USA",Miami,null
Jupiter Farms Massage,http://www.jfmassage.com/,(561) 745-2662,"10064 W Indiantown Rd, Jupiter, FL 33478, USA",Jupiter,null
JUST RIDE,null,(917) 946-6039,"4201 SW 95th Ave REAR, Davie, FL 33328, USA",Davie,null
Justin' Time Stables,http://www.justintimestables.com/,(772) 486-4609,"6820 SW Markel St, Palm City, FL 34990, USA",Palm City,null
Kai Total Wellness,http://kaitotalwellness.com/,(727) 512-9837,"8424 4th St N Q, St. Petersburg, FL 33702, USA",St. Petersburg,null
"Karen's Equine Intervention, Inc.",null,(561) 847-6202,"16280 Calder Dr E, Loxahatchee, FL 33470, USA",Loxahatchee,null
KDM Counseling Group,https://kdmcounselinggroup.com/?utm_source=google&utm_medium=organic&utm_campaign=gmbwebsite,(727) 607-5847,"2931 1st Ave S, St. Petersburg, FL 33712, USA",St. Petersburg,null
Ke'Aloha Equestrian Centre,http://www.kealohaequestrian.com/,(727) 243-3040,"18806 Brooker Creek Dr, Odessa, FL 33556, USA",Odessa,null
Kelcie's LLC,https://kelcies.com/,(561) 313-2276,"15078 Corby Ct, Wellington, FL 33414, USA",Wellington,null
Kelly Morris Hearts4Horses,null,(772) 528-6784,"10325 SW Green Ridge Ln, Palm City, FL 34990, USA",Palm City,null
Kiddy Up Ranch,http://kiddyupranch.org/,(727) 377-2840,"15232 Matis Rd, Hudson, FL 34669, USA",Hudson,null
Kids and Canines,http://www.kidsandcanines.org/,(813) 986-2118,"13525 Hwy 301 N, Thonotosassa, FL 33592, USA",Thonotosassa,null
Kings Wellness Ranch,https://kingswellnessranch.com/,(561) 704-4851,"Lake Worth Beach, FL 33460, USA",Lake Worth Beach,null
Kitty Help Desk,https://kittyhelpdesk.com/,null,"5455 Verna Blvd Suite 37924, Jacksonville, FL 32205, USA",Jacksonville,null
"Kiwanis - Horses And Handicapped, Inc.",null,null,"5051 SW 73rd Ave, Davie, FL 33314, USA",Davie,null
Koru Spring - Eating Disorder Treatment Center,https://www.koruspring.com/?utm_source=google&utm_medium=google_my_business,(855) 588-1399,"1900 Corporate Square Blvd Floor 2, Jacksonville, FL 32216, USA",Jacksonville,null
KVA Holistic Wellness Sanctuary,http://www.kvaholisticwellness.com/,(772) 206-0376,"1422 SW Goodman Ave, Port St. Lucie, FL 34953, USA",Port St. Lucie,null
La Clinica Del Pueblo Community Health & Wellness,https://www.chwcm.org/,(305) 728-4880,"1671 W 37th St #4, Hialeah, FL 33012, USA",Hialeah,null
La Petite Cheval Farm,null,(561) 324-5177,"13678 14th Pl N, Loxahatchee, FL 33470, USA",Loxahatchee,null
Lakewood Center,https://www.lakewoodcenter.org/,(407) 332-1711,"8400 La-Amistad Cove, Fern Park, FL 32730, USA",Fern Park,null
"Laurie D. Lerner, LMHC",null,null,"250 Jacaranda Dr, Plantation, FL 33324, USA",Plantation,null
LCH2H,null,(863) 219-0097,"5938 Hovan Ave, Plant City, FL 33565, USA",Plant City,null
LeadER Animal Specialty Hospital Cooper City,http://www.leadervet.com/,(954) 437-9630,"9410 Stirling Rd, Hollywood, FL 33024, USA",Hollywood,null
Legacy Equestrian Center,null,(417) 459-0871,"17840 Palm Creek Dr, North Fort Myers, FL 33917, USA",North Fort Myers,null
Life Care Center of Winter Haven,https://lcca.com/locations/fl/winter-haven/,(863) 969-5610,"1510 Cypress Gardens Blvd, Winter Haven, FL 33884, USA",Winter Haven,null
Life Pulse Therapy,null,(239) 494-0822,"20270 S Tamiami Trl Suite #1, Estero, FL 33928, USA",Estero,null
"Lifescape Integrative Therapy, LLC",http://lifescapecounselingservices.com/,(239) 478-6817,"6315 Presidential Ct # 110, Fort Myers, FL 33919, USA",Fort Myers,null
Lifeskills Orlando,https://lifeskillssouthflorida.com/programs/orlando-residential/,(407) 863-2191,"119 Pasadena Pl, Orlando, FL 32803, USA",Orlando,null
Lifespan Services Inc,http://www.lifespanservices.com/,(727) 847-0069,"7702 Massachusetts Ave, New Port Richey, FL 34653, USA",New Port Richey,null
"LifeWorks Wellness Center Clearwater, Integrative Medicine Clinic, Holistic Medicine Clinic",https://www.lifeworkswellnesscenter.com/?utm_campaign=gmb,(727) 604-9715,"301 Turner St, Clearwater, FL 33756, USA",Clearwater,null
Lighthouse Pet Clinic,http://www.lighthousepet.com/,(239) 674-9060,"4316 Lee Blvd #11, Lehigh Acres, FL 33971, USA",Lehigh Acres,null
"Limitless Potentials: Jupiter Therapist & Counseling, Kathy Shafer Ph.D",https://www.limitlesspotentials.com/,(561) 799-6789,"351 S U.S. Rte 1 #100, Jupiter, FL 33477, USA",Jupiter,null
Little Beak Farm,https://www.littlebigbeakfarm.com/,null,"12570 Aubrey Ln, Bokeelia, FL 33922, USA",Bokeelia,null
Little Pond Farm,null,(850) 556-6012,"5290 Crump Rd, Tallahassee, FL 32309, USA",Tallahassee,null
Living Sculpture Sanctuary,http://www.livingsculpturesanctuary.com/,(954) 952-2500,"2800 S Flamingo Rd, Davie, FL 33330, USA",Davie,null
LJC Equestrian Services,null,(407) 520-8924,"Curry Ford Rd, Orlando, FL 32822, USA",Orlando,null
Lone Palm Stables,http://www.lonepalmstables.com/,(352) 596-3213,"12460 Star Rd, Brooksville, FL 34613, USA",Brooksville,null
Lorraine's Horse Rescue,null,(727) 856-1567,"15254 Little Ranch Rd, Spring Hill, FL 34610, USA",Spring Hill,null
Lourdes Noreen McKeen Residence,http://www.lourdesmckeen.org/,(561) 655-8544,"315 S Flagler Dr, West Palm Beach, FL 33401, USA",West Palm Beach,null
Lucky Dog Training Club,https://luckydogtrainingclub.com/,(561) 427-6700,"300 Central Blvd, Jupiter, FL 33458, USA",Jupiter,null
Luxe Rehabilitation Center at Wellington,https://luxeatwellington.com/,(561) 598-5473,"10330 Nu Vista Ave, Wellington, FL 33414, USA",Wellington,null
Madonna's Equestrian Academy,https://horsebacklessons.com/,(352) 222-3266,"7624 NE 62 Dr, Gainesville, FL 32609, USA",Gainesville,null
Mahan Oaks Center,null,(850) 558-1270,"2824 Mahan Dr, Tallahassee, FL 32308, USA",Tallahassee,null
Mainstone Riding Academy,http://www.mainstoneridingacademy.com/,(863) 602-0782,"Mainstone Dr, Lakeland, FL 33801, USA",Lakeland,null
Making Strides For Autism,https://makingstridesforautism.org/,(904) 862-6040,"5800 Beach Blvd Ste 203-235, Jacksonville, FL 32207, USA",Jacksonville,null
Maligators Dog Training,https://maligatorsdogtraining.com/?utm_source=google&utm_medium=gmb&utm_campaign=google_listing,(727) 378-2220,"12890 Starkey Rd Unit #4, Largo, FL 33773, USA",Largo,null
Martin Animal Clinic,https://martinanimalclinic.com/,(772) 266-8321,"1516 SW Mapp Rd, Palm City, FL 34990, USA",Palm City,null
Martin Integrative Animal Clinic,https://integrativeanimalclinic.com/,(786) 269-0960,"2051 NW 112th Ave STE 116, Miami, FL 33172, USA",Miami,null
Matter of Speech,https://matterofspeechtherapy.com/,(786) 651-8140,"10031 Pines Blvd Suite 213, Pembroke Pines, FL 33024, USA",Pembroke Pines,null
Max's Pet Market & Salon (Mirada location),https://maxspetmarketandsalon.com/mirada/,(352) 437-6677,"30945 Mirada Blvd, San Antonio, FL 33576, USA",San Antonio,null
Medical Health Institute - Wellness Experts,https://www.medicalhealthinstitute.com/,(786) 314-7141,"9555 SW 175th Terrace #6004, Palmetto Bay, FL 33157, USA",Palmetto Bay,null
Melissaâ€™s Massage Therapy,http://melissaganeylmt.com/,(850) 228-1534,"1725 Capital Cir NE Suite 304, Tallahassee, FL 32308, USA",Tallahassee,null
Meridian Outpatient Gainesville Office,http://mbhci.org/,(352) 374-5600,"4300 SW 13th St #27, Gainesville, FL 32608, USA",Gainesville,null
Miami Dog School,https://miamidogschooltraining.com/,(786) 804-2813,"529 NW 43rd St, Miami, FL 33127, USA",Miami,null
Miami Shores Animal Clinic,https://www.miamishoresanimalclinic.com/,(305) 757-3030,"570 NW 103rd St, Miami, FL 33150, USA",Miami,null
Millennium Physician Group - Fort Myers Physical Therapy,https://millenniumphysician.com/location/fort-myers-physical-therapy/,(239) 938-1745,"13774 Plantation Rd Ste 104, Fort Myers, FL 33912, USA",Fort Myers,null
Miller Road Animal Clinic,http://www.millerroadanimalclinic.com/,(305) 279-1646,"9328 SW 56th St, Miami, FL 33165, USA",Miami,null
Mind Your Manners Canine Training- Dog Training and Boarding-Family Owned,http://www.mindyourmannersfl.com/,(863) 500-7869,"7955 Indian Heights Dr, Lakeland, FL 33810, USA",Lakeland,null
MindBody Alignment,http://www.mbalignment.com/,(727) 210-5941,"152 8th Ave SW #5B, Largo, FL 33770, USA",Largo,null
Miracle Equestrian LLC,null,(727) 729-1598,"18930 Tyler Rd, Odessa, FL 33556, USA",Odessa,null
MM Equestrian Farm North Miami,https://www.mmequestrianfarm.com/,(954) 881-5017,"1725 NE 135th St, North Miami, FL 33181, USA",North Miami,null
Moccasin Stables,http://www.moccasinstablesllc.com/,(850) 363-8572,"4406 Veterans Memorial Dr, Tallahassee, FL 32309, USA",Tallahassee,null
Monterey Animal Clinic,https://www.montereyanimalclinic.com/,(772) 283-3756,"2251 S Kanner Hwy, Stuart, FL 34994, USA",Stuart,null
Morganâ€™s Dog Training,http://morgansdogtraining.com/,(850) 329-5266,"1326 S Adams St, Tallahassee, FL 32301, USA",Tallahassee,null
Morningside Retriever Kennels,http://www.morningsideretrievers.com/,(850) 539-9633,"124 S Quail Hollow Rd, Havana, FL 32333, USA",Havana,null
Move Well Chiropractic & Rehab,https://movewellchirofl.com/,(407) 951-7591,"950 S Winter Park Dr Suite 245, Casselberry, FL 32707, USA",Casselberry,null
Myrland Stables,http://myrlandstables.com/,(954) 646-1616,"5550 SW 73rd Ave, Davie, FL 33314, USA",Davie,null
Nala's Ranch: Dog Boarding & Training,http://nalasranch.my.canva.site/,(727) 638-8206,"15220 Loma Ave, Spring Hill, FL 34610, USA",Spring Hill,null
Nathans Family Farm & Rescue(Tours by appointment only),http://nathanfamily.farm/,(772) 208-0101,"6907 SW Moore St, Palm City, FL 34990, USA",Palm City,null
Natural Approach Wellness Center,http://www.mynaturalapproach.com/,(321) 725-2438,"2002 Pennwood Dr, Melbourne, FL 32901, USA",Melbourne,null
Natural Holistic Health Care,https://naturalholistic.com/,(305) 652-5372,"751 NE 168th St, North Miami Beach, FL 33162, USA",North Miami Beach,null
Natural Medicine Center of Lakeland,https://naturallakeland.com/,(863) 899-9977,"315 Doris Dr, Lakeland, FL 33813, USA",Lakeland,null
"Nature Speaks, Inc.",http://www.nature-speaks.com/,(561) 632-2394,"11065 164th Ct N, Jupiter, FL 33478, USA",Jupiter,null
No Bones About It,http://www.nobonesaboutit.biz/,(727) 898-1054,"1128 24th Ave N, St. Petersburg, FL 33704, USA",St. Petersburg,null
Norka Dog Guru,http://norkadogguru.com/,null,"5527 Bob Smith Ave, Plant City, FL 33565, USA",Plant City,null
Northampton Animal Clinic,http://www.northamptonanimalclinic.com/,(850) 668-8031,"2910 Kerry Forest Pkwy, Tallahassee, FL 32309, USA",Tallahassee,null
Novaâ€™s Royal Pets Corp.Frenchies & Maine Coons,http://www.novas.biz/,(904) 616-2706,"1045 Oakvale Rd, Jacksonville, FL 32259, USA",Jacksonville,null
NuCat Feline Hyperthyroid Clinic,https://www.mynucat.com/,(813) 729-7777,"106 Mason St, Brandon, FL 33511, USA",Brandon,null
NuLife Institute,https://nulifeinstitute.com/location/nulife-institute-locations-miami/?utm_source=google&utm_medium=organic&utm_campaign=gmb,(305) 400-0005,"1040 Biscayne Blvd 8th floor, Miami, FL 33132, USA",Miami,null
Oak Aged Farm,http://www.oakagedfarm.com/,(321) 399-2599,"2365 Absher Rd, St Cloud, FL 34771, USA",St Cloud,null
Oakhurst Obedience Classes,null,(727) 595-4038,"13690 Park Blvd, Seminole, FL 33776, USA",Seminole,null
Oakpark Health & Rehabilitation Center,https://oakparkrehabilitation.com/,(727) 787-4777,"2851 Tampa Rd, Palm Harbor, FL 34684, USA",Palm Harbor,null
Oaks Family Counseling,http://www.oaksfamilycounseling.com/,(352) 278-9040,"7520 W University Ave Ste. A, Gainesville, FL 32607, USA",Gainesville,null
Obedience Club of Daytona,http://dogobediencedaytonabeach.com/,null,"1276 8th St, Daytona Beach, FL 32117, USA",Daytona Beach,null
Obedience Training Club,http://otcpbc.org/,(561) 841-4040,"1250 Gateway Rd, West Palm Beach, FL 33403, USA",West Palm Beach,null
Ocean Psychology Group,https://www.oceanpsychologygroup.com/,(305) 200-3921,"3735 SW 8th St #201, Coral Gables, FL 33134, USA",Coral Gables,null
Ojhus - The Healing Forest,http://ojhus.com/,(630) 225-1005,"3355 Sneed Rd, Fort Pierce, FL 34945, USA",Fort Pierce,null
Olympic Behavioral Health,https://olympicbehavioralhealth.com/,(561) 559-6559,"3618 Lantana Rd Suite 200, Lantana, FL 33462, USA",Lantana,null
Open Doors Counseling Center,http://www.opendoorscc.com/,(407) 900-3218,"530 Dog Track Rd, Longwood, FL 32750, USA",Longwood,null
Operation: SNIP Spay Neuter Clinic and Operation: SNIP Wellness Center,http://operationsnip.com/,(727) 595-1983,"Operation: SNIP Spay Neuter Clinic 13489, Operation: SNIP Wellness Clinic, 13521 Walsingham Rd, Largo, FL 33774, USA",Largo,null
Orange Clover Farms,http://www.ocstables.us/,(239) 694-6935,"12654 Orange River Blvd, Fort Myers, FL 33905, USA",Fort Myers,null
Orlando Health - Health Central Park Nursing and Rehabilitation Center,https://www.orlandohealth.com/facilities/health-central-park,(407) 296-1600,"411 N Dillard St, Winter Garden, FL 34787, USA",Winter Garden,null
Orlando Pet Crematory,http://www.orlandopetcrematory.com/,(407) 381-7474,"7284 Narcoossee Rd, Orlando, FL 32822, USA",Orlando,null
Orlando Thrive Therapy,https://www.orlandothrivetherapy.com/,(407) 592-8997,"216 Pasadena Pl, Orlando, FL 32803, USA",Orlando,null
OrthoPaws - Animal Orthotics & Mobility Solutions,https://orthopaws.vet/,(727) 620-6001,"34896 US Hwy 19 N, Palm Harbor, FL 34684, USA",Palm Harbor,null
"Outback Animal Clinic: Proutsos Regina DVM, Bouton Rachel DVM",https://outbackanimalclinic.com/,(863) 984-4123,"224 Commonwealth Ave N, Polk City, FL 33868, USA",Polk City,null
Oxygen4Pets.com,https://oxygen4pets.com/,(813) 770-7958,"4520 W Village Dr c, Tampa, FL 33624, USA",Tampa,null
"P.A.W. Service Dogs, Inc.",http://www.pawservicedogs.com/,(904) 947-6323,"425 Town Plaza Ave, Ponte Vedra Beach, FL 32081, USA",Ponte Vedra Beach,null
P.U.P.S. Dog Training,http://pupsgainesville.com/,null,"5000 NW 34th Blvd, Gainesville, FL 32605, USA",Gainesville,null
Palm Beach Dog Academy,https://palmbeachdogacademy.com/,(561) 286-2777,"15440 76th Rd N, Loxahatchee, FL 33470, USA",Loxahatchee,null
Palm City Equestrians,https://www.palmcityequestrians.com/,(772) 219-9129,"2944 SW Boatramp Ave, Palm City, FL 34990, USA",Palm City,null
Palm City Nursing and Rehab Center,https://www.palmcityrehab.com/,(772) 288-0060,"2505 SW Martin Hwy, Palm City, FL 34990, USA",Palm City,null
Palm Sport and Wellness & Palm Halo Cave (Salt therapy) Palm Skin Care and Facials,http://phw.massagetherapy.com/,(772) 801-5584,"208 Avenue E, Fort Pierce, FL 34950, USA",Fort Pierce,null
Palmetto Animal Clinic,http://palmettoanimalclinic.net/,(305) 824-9990,"1919 W 68th St, Hialeah, FL 33014, USA",Hialeah,null
Palmetto Subacute Care Center,http://palmettosubacute.com/,(305) 261-2525,"7600 SW 8th St, Miami, FL 33144, USA",Miami,null
Palomino Ranch & Tours LLC,http://www.palominoranchtours.com/,(786) 405-4030,"4020 Virginia Beach Dr, Miami, FL 33149, USA",Miami,null
Panda Animal Clinic,http://www.pandaanimalclinic.com/,(305) 887-1018,"329 E 9th St #101, Hialeah, FL 33010, USA",Hialeah,null
Panhandle Equine Massage,https://www.facebook.com/PanhandleEquineMassage/,(850) 832-9588,"1349 Linda Ann Dr, Tallahassee, FL 32301, USA",Tallahassee,null
Panhandle Pet Supply,https://m.facebook.com/PanhandlePetSupply/,(850) 656-7181,"400 Capital Cir SE # 9, Tallahassee, FL 32301, USA",Tallahassee,null
Paradise Golden Retrievers,http://paradisegoldenretrievers.com/,null,"Berry Farm Rd, Lithia, FL 33547, USA",Lithia,null
PARADISE PET NANNY,null,(239) 413-5119,"2655 N Airport Rd #61913, Fort Myers, FL 33907, USA",Fort Myers,null
Park Feed Store & Pet Supply,https://www.facebook.com/parkfeedstore,(727) 546-7503,"5775 Park Blvd, Pinellas Park, FL 33781, USA",Pinellas Park,null
Parkland Equestrian Center,https://www.cityofparkland.org/facilities/facility/details/Equestrian-Center-at-Temple-Park-3,(954) 753-5040,"8350 Ranch Rd, Parkland, FL 33067, USA",Parkland,null
Parting Paws - Pet Euthanasia in the privacy and comfort of your home,http://www.partingpaws.com/,(727) 483-5355,"9070 130th Ave N, Largo, FL 33773, USA",Largo,null
Patti Johnson Farm,https://www.pinellas-park.com/1810/Patti-Johnson-Farm,(727) 589-8030,"6199 94th Ave, Pinellas Park, FL 33782, USA",Pinellas Park,null
Paws and Tails Reiki & Therapeutic Massage,http://www.pawsandtailsreiki.com/,(727) 440-4325,"1501 Lakeview Rd Suite A, Clearwater, FL 33756, USA",Clearwater,null
Paws N Effect Dog Training,https://www.shoshannasdogcare.com/,(917) 224-1089,"21080 Bella Vista Cir, Boca Raton, FL 33428, USA",Boca Raton,null
Paws On The Ground Dog Training,https://potgdogtraining.com/,(656) 219-4263,"5348 Cotee River Dr, New Port Richey, FL 34652, USA",New Port Richey,null
Pawsitive Dog Training,http://www.pawsitivedogtrainingfl.com/,(561) 703-3542,"4100 Palm Forest Dr S, Delray Beach, FL 33445, USA",Delray Beach,null
Pawsitive Healing Mobility Center,http://www.pawsitivehealingvet.com/,null,"1617 Thacker Ave, Jacksonville, FL 32207, USA",Jacksonville,null
Pawsitive Practice Training & Behavior Consulting,http://www.pawsitivepractice.com/,(448) 288-7698,"2130 La Rochelle Dr, Tallahassee, FL 32308, USA",Tallahassee,null
Pawsome Pet Care Nurses / Poulin Ventures LLC,https://pawsomepetcare.biz/,(352) 423-2220,"10990 S Suncoast Blvd, Homosassa, FL 34446, USA",Homosassa,null
Pawz-itive Dog Training,http://www.letsgetyoutrainedup.com/,(352) 474-3888,"230 S Andrews Ave #11, Pompano Beach, FL 33069, USA",Pompano Beach,null
Peacefield Farm Sanctuary,https://www.peacefield.farm/,(352) 448-1355,"2220 SW 146th St, Newberry, FL 32669, USA",Newberry,null
Peaceful Ridge Rescue,https://www.peacefulridgerescue.org/,(954) 240-6080,"2995 Peaceful Ridge Rd, Davie, FL 33330, USA",Davie,null
Pediatric Advancement - Behavior Therapy | Speech & Language | Occupational Therapy | Special Education,https://www.pediatricadvancement.com/,(800) 484-6803,"4900 S University Dr #207d, Davie, FL 33328, USA",Davie,null
Peninsula Health Center,http://peninsulahbrv.com/,(727) 934-0876,"900 Beckett Way, Tarpon Springs, FL 34689, USA",Tarpon Springs,null
People's Freedom Farm,https://www.instagram.com/real.orl,null,"4400 N Powers Dr, Orlando, FL 32818, USA",Orlando,null
Pet Angel Memorial Center,https://www.petangelmemorialcenter.com/,(904) 383-7387,"5570 Florida Mining Blvd S STE 510, Jacksonville, FL 32257, USA",Jacksonville,null
Pet Angel Memorial Center,http://www.petangelmemorialcenter.com/,(239) 936-1732,"1939 Park Meadows Dr, Fort Myers, FL 33907, USA",Fort Myers,null
Pet Cancer Group,http://petcancergroup.com/,(844) 738-2436,"8356 SW 40th St, Miami, FL 33155, USA",Miami,null
Pet Ortho & Rehab,null,(352) 597-0044,"7044 Commercial Way O, Spring Hill, FL 34613, USA",Spring Hill,null
Pet Pain Management Center,http://www.petpain.org/,(407) 913-9876,"7313 Lake Underhill Rd, Orlando, FL 32822, USA",Orlando,null
"Pet Passages - Melbourne, FL | Dignified Pet Cremation",http://melbourne.fl.petpassages.com/,(321) 254-3333,"2825 Business Ctr Blvd suite c-3, Melbourne, FL 32940, USA",Melbourne,null
Pet Rehab and Fitness,null,(386) 761-2123,"3506 S Nova Rd #2, Port Orange, FL 32176, USA",Port Orange,null
PET SKUNK ADVOCATES & RESCUE INC.,http://katspsar.com/,(727) 482-3724,"6243 15th Ave S, Gulfport, FL 33707, USA",Gulfport,null
Pet Supermarket,https://www.petsupermarket.com/storelocator/?storeId=350,(954) 602-9488,"5824 Hollywood Blvd, Hollywood, FL 33021, USA",Hollywood,null
Pet Supermarket,https://www.petsupermarket.com/storelocator/?storeId=129,(407) 438-6760,"12640 S Orange Blossom Trl STE #118, Orlando, FL 32837, USA",Orlando,null
Pet Urgent Response and Emergency,https://www.pureveter.com/,(904) 922-7873,"8117 Point Meadows Dr #107, Jacksonville, FL 32256, USA",Jacksonville,null
Pet Wellness Center LLC,http://www.petwellnesscenter.pet/,(239) 454-7387,"13571 McGregor Blvd #24, Fort Myers, FL 33919, USA",Fort Myers,null
Petco Dog Training,https://stores.petco.com/fl/altamontesprings/dog-training-altamontesprings-fl-2504.html,(407) 551-2217,"375 E Altamonte Dr Suite 1100, Altamonte Springs, FL 32701, USA",Altamonte Springs,null
Petco Dog Training,https://stores.petco.com/fl/tallahassee/dog-training-tallahassee-fl-1745.html,(850) 656-0395,"1624 Governors Square Blvd, Tallahassee, FL 32301, USA",Tallahassee,null
Petland Fort Myers,https://www.petlandfortmyers.com/?utm_source=GMBlisting&utm_medium=organic,(239) 232-3770,"7091-13 College Pkwy, Fort Myers, FL 33907, USA",Fort Myers,null
Petland Jacksonville,https://jaxpetland.com/?utm_source=GMBlisting&utm_medium=organic,(904) 320-2359,"13740 Beach Blvd #415, Jacksonville, FL 32224, USA",Jacksonville,null
"PETS Pet Enrichment and Training Solutions, LLC",http://www.petsenrichment.com/,(813) 451-2722,"7222 Creekwood Ct, Tampa, FL 33615, USA",Tampa,null
PetSmart,https://www.petsmart.com/stores/us/fl/miami-store1412.html?utm_source=google&utm_medium=organic&utm_campaign=google-my-business,(305) 573-8026,"3101 N Miami Ave Suite 110, Miami, FL 33127, USA",Miami,null
PetSmart,https://www.petsmart.com/stores/us/fl/fort-myers-store0332.html?utm_source=google&utm_medium=organic&utm_campaign=google-my-business,(239) 277-9890,"5013 S Cleveland Ave, Fort Myers, FL 33907, USA",Fort Myers,null
PetSmart Dog Training,https://stores.petsmart.com/fl/altamonte-springs/altamonte-springs/dog-training?utm_source=google&utm_medium=organic&utm_campaign=google-my-business,(407) 682-7220,"380 S State Rd 434, Altamonte Springs, FL 32714, USA",Altamonte Springs,null
PetSmart Dog Training,https://stores.petsmart.com/fl/brandon/brandon-causeway/dog-training?utm_source=google&utm_medium=organic&utm_campaign=google-my-business,(813) 689-3378,"11331 Causeway Blvd, Brandon, FL 33511, USA",Brandon,null
PetSmart Dog Training,https://stores.petsmart.com/fl/tallahassee/tallahassee/dog-training?utm_source=google&utm_medium=organic&utm_campaign=google-my-business,(850) 297-1500,"3220 Capital Cir NE, Tallahassee, FL 32308, USA",Tallahassee,null
PHARM-AID Pharmacy,https://pharm-aidrx.com/,(954) 544-4994,"12117 Pembroke Rd, Pembroke Pines, FL 33025, USA",Pembroke Pines,null
Physical Therapy Services,http://www.physicaltherapyforyou.com/,(305) 221-1685,"8390 W Flagler St, Miami, FL 33144, USA",Miami,null
Pine Hollow,https://www.pinehollowfarms.com/,(954) 757-1119,"6670 NW 82nd Terrace, Parkland, FL 33067, USA",Parkland,null
Pinellas Animal Foundation,http://pinellasanimalfoundation.org/,(727) 397-7387,"10825 Seminole Blvd # A3, Seminole, FL 33778, USA",Seminole,null
Pines Recovery Life,https://pinesrecoverylife.com/,(954) 994-1431,"1151 Poinciana Dr, Pembroke Pines, FL 33025, USA",Pembroke Pines,null
Pink Flamingo Stables,http://www.pinkflamingostables.com/,(516) 650-6555,"BY APPOINTMENT ONLY, 6723 Park Ln E, Lake Worth Beach, FL 33449, USA",Lake Worth Beach,null
Pitts Carl H DVM,http://www.northeastanimal.com/,(850) 893-5636,"1407 Timberlane Rd, Tallahassee, FL 32312, USA",Tallahassee,null
Plantation Equestrian Center,https://www.plantation.org/government/departments/parks-recreation/equestrian-center,(954) 476-4316,"1451 NW 118th Ave, Plantation, FL 33323, USA",Plantation,null
Plantation Nursing & Rehab Center,http://www.plantationrehab.com/,(954) 587-3296,"4250 NW 5th St, Plantation, FL 33317, USA",Plantation,null
Polly Tails Home Euthanasia,https://www.pollytails.com/,(904) 909-6935,"731 Duval Station Rd Suite 107-170, Jacksonville, FL 32218, USA",Jacksonville,null
Posh Paws Parlor,https://www.poshpawsparlor.com/,(754) 314-9100,"2332 Hollywood Blvd, Hollywood, FL 33020, USA",Hollywood,null
Positive Steps ABA,http://positivestepsaba.com/,(321) 477-3905,"1912 Dairy Rd, West Melbourne, FL 32904, USA",West Melbourne,null
Precision Canine Performance,http://pcpk9.com/,(727) 389-0036,"9651 Osceola Dr, New Port Richey, FL 34654, USA",New Port Richey,null
Premier Physical Therapy & Sports Performance,http://www.ptandsportstherapy.com/?utm_source=google-gmb-maps&utm_medium=gmb-website-button&utm_campaign=locl.io&utm_content=7b3bb8c2-f730-47ca-808b-e57653ab5dc7,(727) 442-7500,"1661 Rainbow Dr, Clearwater, FL 33755, USA",Clearwater,null
Premier Therapy Services,null,(850) 210-1172,"1809 Miccosukee Commons Dr STE 112, Tallahassee, FL 32308, USA",Tallahassee,null
Prime Time Critters,http://southfloridazoo.com/,(561) 425-0741,"9737 Campi Dr, Wellington, FL 33467, USA",Wellington,null
Progress 4 Paws,https://progress4paw.com/,(716) 949-5425,"219 Orangewood Ln, Largo, FL 33770, USA",Largo,null
Project Stable Foundation,null,null,"5790 SW 130th Ave, Southwest Ranches, FL 33330, USA",Southwest Ranches,null
Promise Land Painted Ranch,null,(727) 815-9395,"15829 Shady Hills Rd, Spring Hill, FL 34610, USA",Spring Hill,null
Proven Equine LLC,http://www.provenequine.com/,(352) 630-3373,"11850 NE 116th St, Archer, FL 32618, USA",Archer,null
Puppy City,http://puppycity.co/,(786) 603-9324,"6344 Bird Rd, Miami, FL 33155, USA",Miami,null
Puppy Place USA,https://puppyplaceusashop.com/,(305) 403-0215,"10517 SW 40th St, Miami, FL 33165, USA",Miami,null
Purrology Cat Cafe,https://www.purrologycafe.com/,null,"5343 Florida Ave S, Lakeland, FL 33813, USA",Lakeland,null
Qualified Pet Services,http://qualifiedpetservices.com/,(239) 989-9240,"College Pkwy, Fort Myers, FL 33919, USA",Fort Myers,null
Raber Training Pavilion at Peggy Adams Animal Rescue League,https://www.peggyadams.org/events?field_event_start_date_value%5Bmin%5D=&field_event_start_date_value%5Bmax%5D=&field_tags_target_id=616&combine=,(561) 472-8815,"3200 N Military Trl #3100, West Palm Beach, FL 33409, USA",West Palm Beach,null
Radiantly Healthy Drip Lounge,https://www.radiantlyhealthydriplounge.com/,(321) 243-1859,"150 5th Ave suite b, Indialantic, FL 32903, USA",Indialantic,null
"RamboTeam, LLc",http://ramboteam.com/,(561) 324-2039,"12240 60th St N, West Palm Beach, FL 33411, USA",West Palm Beach,null
"Ramon de Armas, DVM, GPCert(Exotic Animal Practice)",http://www.avianexotics.vet/,(786) 361-9344,"3858 SW 137th Ave, Miami, FL 33175, USA",Miami,null
Raven Ridge Farm,http://www.ravenridgefarm.com/,(612) 306-6671,"13101 Collecting Canal Rd, Loxahatchee, FL 33470, USA",Loxahatchee,null
"Razorback Equestrian Center, LLC",http://www.razorbackeq.com/,(352) 345-4477,"19920 Bowman Rd, Spring Hill, FL 34610, USA",Spring Hill,null
Redemptive Love Farm,https://redemptivelovefarm.com/,(850) 894-1800,"9036 Magenta Ln, Miccosukee, FL 32309, USA",Miccosukee,null
Redemptive Love Rescue,https://redemptivelovefarm.com/,(850) 894-1800,"9042 Magenta Ln, Tallahassee, FL 32309, USA",Tallahassee,null
Relentless Equestrian Stables,https://relentless-stables.org/,null,"4150 Lake Washington Rd, Melbourne, FL 32934, USA",Melbourne,null
Relief Holistic Therapy,https://reliefholistictherapy.com/,(954) 860-6720,"Operating at Spa & Wellness Center, Los Maderos Plaza, 4987 N University Dr Suite 21, Lauderhill, FL 33351, USA",Lauderhill,null
Remedy Therapy Behavioral Health,https://www.remedytherapybehavioralhealth.com/?utm_source=google&utm_medium=organic&utm_campaign=gbp&utm_term=Remedy-Therapy-Behavioral-Health&utm_content=website,(888) 894-4814,"6300 SE Federal Hwy, Stuart, FL 34997, USA",Stuart,null
Resistance Ranch,http://facebook.com/resistanceranch,(954) 557-3861,"7350 SW 39th St, Davie, FL 33314, USA",Davie,null
Restore Hyper Wellness,http://www.restore.com/locations/fl-west-palm-beach-fl008?utm_source=gmb&utm_medium=Yext&y_source=1_NjAxNDQ2NDItNzE1LWxvY2F0aW9uLndlYnNpdGU%3D,(561) 858-8855,"2795 S Dixie Hwy, West Palm Beach, FL 33405, USA",West Palm Beach,null
"Restoring Hope Counseling, LLC.",http://www.restoringhopetherapist.com/,(239) 351-5532,"1322 SE 46th Ln UNIT 201, Cape Coral, FL 33904, USA",Cape Coral,null
Retirement Home for Horses Inc Alachua Fla,https://millcreekfarm.org/,(386) 462-1001,"20307 Co Rd 235A, Alachua, FL 32615, USA",Alachua,null
Revibe Therapy Orlando,https://revibetherapy.com/,(407) 801-2191,"6900 Tavistock Lakes Blvd Suite 400, Orlando, FL 32827, USA",Orlando,null
Reviving Waters Massage,null,(386) 453-0635,"600 S Yonge St ste 12 a, Ormond Beach, FL 32174, USA",Ormond Beach,null
Revolution Dog Training,http://www.bestdogtrainingtampa.com/,(813) 777-0681,"7123 Silvermill Dr, Tampa, FL 33635, USA",Tampa,null
Rewired Ketamine,https://rewiredketamine.com/?utm_source=google,(305) 676-6070,"2820 NE 214th St #1002, Aventura, FL 33180, USA",Aventura,null
Ride For Success,http://rideforsuccess.com/,(239) 404-6388,"12621 Rod and Gun Club Rd, Fort Myers, FL 33913, USA",Fort Myers,null
"Riverbend Equestrian Center - Horse Boarding Jupiter, FL",http://www.riverbendec.com/,(631) 834-4818,"16672 115th Ave N, Jupiter, FL 33478, USA",Jupiter,null
"RKG Psychotherapy, LLC",http://rkgtherapy.com/,(954) 400-1611,"2900 N University Dr #68, Coral Springs, FL 33065, USA",Coral Springs,null
Robertson Ranch,null,(321) 987-7386,"2600 Washingtonia Dr, Melbourne, FL 32934, USA",Melbourne,null
Rocco's Pack Pet Services,http://roccospack.com/,(786) 309-5109,"1955 NE 164th St, North Miami Beach, FL 33162, USA",North Miami Beach,null
"Rocky Creek Farms Equine Services, LLC",http://rockycreek.farm/,(352) 278-1222,"3417 NW 177th Ave, Gainesville, FL 32609, USA",Gainesville,null
Rolfmesi Structural Integration,http://rolfmesi.com/,(954) 203-4069,"800 W Las Olas Blvd, Fort Lauderdale, FL 33312, USA",Fort Lauderdale,null
Rood & Riddle Equine Hospital in Wellington,https://roodandriddle.com/,(561) 383-5437,"5320 S Shore Blvd, Wellington, FL 33449, USA",Wellington,null
Rose Lesniak Dog Trainer,http://roselesniakdogtrainer.com/,(305) 868-8109,"645 NE 62nd St, Miami, FL 33138, USA",Miami,null
Royal Flush Equestrian Center,https://royalflushequestriancenter.com/,(401) 864-6161,"6440 Staley Farms Rd, Fort Myers, FL 33905, USA",Fort Myers,null
Royal Palm Beach Health and Rehabilitation Center,https://royalpalmbeachhrc.com/,(561) 798-3700,"600 Business Park Way, Royal Palm Beach, FL 33411, USA",Royal Palm Beach,null
Ruff Times Dog Training,http://rufftimesdogtraining.com/,(787) 420-2613,"15765 NW 16th Ct, Pembroke Pines, FL 33028, USA",Pembroke Pines,null
Ruffgers Dog University - Stuart Dog Training & Boarding,https://ruffgers.com/stuart/?utm_source=gmb&utm_medium=organic&utm_campaign=gmb&utm_id=ffseo,(772) 286-8283,"1310 SW Commerce Way, Stuart, FL 34997, USA",Stuart,null
Ruxton's Ranch Rides,https://www.ruxtonsranch.com/,(727) 557-7797,"6396 86th Ave, Pinellas Park, FL 33782, USA",Pinellas Park,null
Sage Wellness - 8th Ave,http://gainesvillesage.com/,(352) 474-8882,"4881 NW 8th Ave STE 1, Gainesville, FL 32605, USA",Gainesville,null
Sage Wellness - Haile Village,http://www.gainesvillesage.com/,(352) 474-8882,"4850 SW 91st Terrace P-102, Gainesville, FL 32608, USA",Gainesville,null
Saling's Obedience School,https://salingsobedience.com/,(813) 689-0132,"404 E Jersey Ave, Brandon, FL 33510, USA",Brandon,null
Salterra at Pinellas Park,http://www.leisurecare.com/our-communities/salterra-at-pinellas-park/,(727) 546-4053,"8980 49th St N, Pinellas Park, FL 33782, USA",Pinellas Park,null
Samson Strength & Performance Physical Therapy,https://www.samsonphysicaltherapy.com/,(904) 774-2744,"408 Beach Blvd #104, Jacksonville Beach, FL 32250, USA",Jacksonville Beach,null
San Felasco Equestrian Trailhead and Biking Trails,null,null,"13201 Progress Blvd, Alachua, FL 32615, USA",Alachua,null
Sanctuary Farm,null,(561) 371-0936,"14290 Broken Wing Ln, West Palm Beach, FL 33418, USA",West Palm Beach,null
Sanctuary Healthcare - Ketamine Therapy in Boca Raton,https://www.sanctuaryhealthcare.org/,(561) 464-5382,"7000 W Palmetto Park Rd Suite 406, Boca Raton, FL 33433, USA",Boca Raton,null
Sand Spur Farm,http://sandspurfarm.org/,(727) 810-0274,"9140 Osceola Dr, New Port Richey, FL 34654, USA",New Port Richey,null
Sandcastle Homecare,http://www.sandcastlehomecare.com/,(321) 326-7200,"1301 W Eau Gallie Blvd Suite 106, Melbourne, FL 32935, USA",Melbourne,null
Santa Cruz Animal Clinic,https://santacruzanimalclinic.com/,(813) 685-7751,"431 W Robertson St, Brandon, FL 33511, USA",Brandon,null
SBT Horsemanship,null,(727) 417-2263,"6373 62nd Ave N, Pinellas Park, FL 33781, USA",Pinellas Park,null
Scott Eric MD,https://www.hcafloridahealthcare.com/physicians/profile/Dr-Eric-W-Scott-MD,(352) 332-0030,"6440 W Newberry Rd #401, Gainesville, FL 32605, USA",Gainesville,null
Scott Lake Health and Rehabilitation,http://www.scottlakerehab.com/,(863) 500-4015,"800 Co Rd 540A, Lakeland, FL 33813, USA",Lakeland,null
Scotty Foundation,http://thescottyfoundation.net/,(407) 325-8982,"3603 Golden Gem Rd, Apopka, FL 32712, USA",Apopka,null
Sebastian Animal and Bird Hospital,http://www.sebastiananimalhospital.com/,(772) 589-6553,"948 U.S. Rte 1, Sebastian, FL 32958, USA",Sebastian,null
Select Physical Therapy - East Lake Road,https://www.selectphysicaltherapy.com/contact/find-a-location/fl/palm-harbor/east-lake-road/?ty=xt,(727) 786-1996,"3488 E Lake Rd S Suite 302, Palm Harbor, FL 34685, USA",Palm Harbor,null
Semper Fi Service Dogs,http://www.semperfiservicedogs.org/,(561) 255-4900,"12650 Orange Blvd, West Palm Beach, FL 33412, USA",West Palm Beach,null
Serendipity Pinellas,http://www.serendipitypinellas.com/,null,"6200 90th Ave N, Pinellas Park, FL 33782, USA",Pinellas Park,null
Serenity Show Stables,http://miamishowjumping.com/,(786) 657-6657,"14000 SW 192nd St, Miami, FL 33177, USA",Miami,null
Serenity Therapeutic Counseling Place,null,(904) 423-4716,"10852 Lem Turner Rd, Jacksonville, FL 32218, USA",Jacksonville,null
Serine Stables,https://horseadventuresofswfl.com/,(239) 297-2175,"18621 Slater Rd, North Fort Myers, FL 33917, USA",North Fort Myers,null
service dogs 4 service men,http://www.servicedogs4servicemen.org/contact/,(954) 243-7189,"308 SW 16th St, Fort Lauderdale, FL 33315, USA",Fort Lauderdale,null
Service Dogs For Patriots,http://www.servicedogsforpatriots.org/,(352) 505-3056,"4131 NW 13th St #104, Gainesville, FL 32609, USA",Gainesville,null
SFR PHYSICAL THERAPY SOUTH MIAMI,http://www.southfloridacenters.com/,(305) 905-4188,"6812 SW 81st St, Miami, FL 33143, USA",Miami,null
Sheehan Homestead,https://sheehanhomestead.com/,(914) 263-1311,"44065 Cushman Rd, Callahan, FL 32011, USA",Callahan,null
Side-Pass Stables LLC,https://www.facebook.com/profile.php?id=100095139165469&mibextid=LQQJ4d,(727) 289-3840,"7585 78th Ave N, Pinellas Park, FL 33781, USA",Pinellas Park,null
Silverthorn Animal Clinic,http://silverthornvet.com/,(352) 345-4830,"14263 Powell Rd, Spring Hill, FL 34609, USA",Spring Hill,null
Simpson Equestrian,null,(727) 488-2693,"10875 60th St, Pinellas Park, FL 33782, USA",Pinellas Park,null
Sit Means Sit Dog Training Ocoee/Winter Garden,https://sitmeanssit.com/dog-training-mu/ocoee-dog-training/?utm_source=google&utm_medium=gbp_listing&utm_campaign=started_5_2024,(407) 900-7297,"215 N Clarke Rd, Ocoee, FL 34761, USA",Ocoee,null
Sit Means Sit Dog Training Orlando,https://sitmeanssit.com/dog-training-mu/orlando-dog-training/?utm_source=google&utm_medium=gmb_listing&utm_campaign=started_10_14_2019,(407) 900-7297,"280 Hunt Park Cove suite 1090, Longwood, FL 32750, USA",Longwood,null
Sit Means Sit Dog Training St. Petersburg,https://sitmeanssitstpete.com/?utm_source=google&utm_medium=gmb&utm_campaign=google_listing,(727) 537-9721,"3551 42nd Ave S Suite B 105, St. Petersburg, FL 33711, USA",St. Petersburg,null
Sit Means Sit Dog Training Tampa,https://sitmeanssit.com/tampa/?utm_source=google&utm_medium=gmb&utm_campaign=google_listing,(813) 505-1337,"802 E Lumsden Rd, Brandon, FL 33511, USA",Brandon,null
Sit N Stay Dog Academy,https://sitnstaydogacademy.com/,(813) 961-0052,"10401 Wilsky Blvd, Tampa, FL 33625, USA",Tampa,null
Sit Pretty Co.,http://sitprettyco.com/,(407) 492-4719,"2319 Cimmaron Ash Way, Apopka, FL 32703, USA",Apopka,null
Sit Stay Dog Training USA,https://www.sitstaydogtrainingusa.com/,(954) 709-4875,"2 SW 62nd Terrace, Plantation, FL 33317, USA",Plantation,null
Smart Start Puppies - Dog Training,https://smartstartpuppies.com/florida/miami?utm_source=google&utm_medium=local&utm_campaign=gmb-mia,(305) 697-7781,"111 SW 3rd St #603, Miami, FL 33130, USA",Miami,null
Smart Start Puppies - Dog Training,https://smartstartpuppies.com/florida/fort-lauderdale?utm_source=google&utm_medium=local&utm_campaign=gmb-ftl,(954) 475-6755,"107 SE 10th St, Fort Lauderdale, FL 33316, USA",Fort Lauderdale,null
"Solace Behavioral Health, LLC",https://www.solacebehavioralhealth.com/,(352) 678-5550,"17222 Hospital Blvd #120, Brooksville, FL 34601, USA",Brooksville,null
Sons of the Wind Farm,https://sonsofthewind.com/,(978) 423-3345,"12981 Casey Rd, Loxahatchee, FL 33470, USA",Loxahatchee,null
SOUL Haven Ranch,http://www.soulhavenranch.com/,(407) 509-1981,"196 Tildenville School Rd, Winter Garden, FL 34787, USA",Winter Garden,null
South Florida Pet Emergency,https://www.gqanimalclinic.com/,(786) 517-9100,"18528 NW 67th Ave, Hialeah, FL 33015, USA",Hialeah,null
South Florida Wildlife Center,http://www.southfloridawildlifecenter.org/,(954) 524-4302,"3200 SW 4th Ave, Fort Lauderdale, FL 33315, USA",Fort Lauderdale,null
"South West Florida Horse Rescue, Inc.",http://www.swfhr.org/,(239) 567-4111,"SWFHR 14811, SR 31, Punta Gorda, FL 33982, USA",Punta Gorda,null
Southeast Animal Chiropractic,https://southeastanimalchiro.com/,(954) 931-3717,"7373 NW 82nd Terrace, Parkland, FL 33067, USA",Parkland,null
Southernwind Kennels | German Shepherd Puppies,https://www.southernwindk9.com/,(352) 667-3844,"19115 Phillips Rd, Brooksville, FL 34604, USA",Brooksville,null
Southside Animal Clinic,https://www.southsideanimalclinic.com/,(904) 721-3500,"100 S Arlington Rd, Jacksonville, FL 32216, USA",Jacksonville,null
Specialists in Companion Animal Neurology (SCAN) - Clearwater,https://www.scanfl.com/locations/clearwater?y_source=1_MjkzNDQzMjEtNzE1LWxvY2F0aW9uLndlYnNpdGU%3D,(727) 325-2955,"2481 Sunset Point Rd, Clearwater, FL 33765, USA",Clearwater,null
"Specialty Speech & Feeding Therapy, LLC",null,(321) 536-0441,"3150 N Wickham Rd Ste. 3, Melbourne, FL 32935, USA",Melbourne,null
"Spirited Strides, LLC",null,(448) 500-4489,"215 E Tharpe St, Tallahassee, FL 32303, USA",Tallahassee,null
SpiritHorse at Windermere Equestrian Center,http://spirithorsewec.com/,(321) 239-4570,"10504 Park Ridge Gotha Rd, Windermere, FL 34786, USA",Windermere,null
Sport Innovations LLC,https://www.sportinnovations.net/,(860) 488-5973,"1000 Stinson Way # 103, West Palm Beach, FL 33411, USA",West Palm Beach,null
Spring Gardens Detox and Recovery,https://www.springgardensrecovery.com/,(352) 484-1999,"8213 Cessna Dr, Spring Hill, FL 34606, USA",Spring Hill,null
Spring Hill Animal Clinic,https://www.springhillanimalclinic.net/,(352) 797-0033,"1377 Anderson Snow Rd, Spring Hill, FL 34609, USA",Spring Hill,null
"Spring Lane Ranch, LLC",http://springlaneranch.com/,(863) 225-5945,"4427 Spring Ln, Lakeland, FL 33811, USA",Lakeland,null
Springbrook Hospital,https://www.springbrookhospital.org/?utm_campaign=gmb,(352) 290-5735,"7007 Grove Rd, Brooksville, FL 34609, USA",Brooksville,null
Spruce Creek Animal Clinic,http://www.sprucecreekanimalclinic.com/,(386) 761-8844,"3915 S Nova Rd, Port Orange, FL 32127, USA",Port Orange,null
St. Anthony's PET/CT Center,https://baycare.org/locations/s/st-anthonys-pet-ct-center?utm_campaign=BayCare_DigitalMarketing_M20140288&utm_source=Google&utm_medium=LocalListing&utm_content=St._Anthonys_PET/CT_Center,(727) 820-7000,"1201 5th Ave N #100, St. Petersburg, FL 33705, USA",St. Petersburg,null
St. Josephâ€™s Hospital Physical Therapy and Sports Rehabilitation (South Tampa),https://baycare.org/locations/s/st-josephs-hospital-physical-therapy-and-sports-rehabilitation-south-tampa?utm_campaign=BayCare_DigitalMarketing_M20140288&utm_source=Google&utm_medium=LocalListing&utm_content=St._Joseph%E2%80%99s_Hospital_Physical_Therapy_and_Sports_Rehabilitation_(South_Tampa),(813) 605-5834,"711 S Dale Mabry Hwy Suite 301, Tampa, FL 33609, USA",Tampa,null
Stable Foundations,null,(407) 493-9656,"905 S Lake Jessup Ave, Oviedo, FL 32765, USA",Oviedo,null
Stable Place,https://www.stableplace.org/,(954) 547-8203,"4141 SW 76th Ave, Davie, FL 33328, USA",Davie,null
Staci's Pet Sitting & Training LLC,https://stacispetsitting.com/,(352) 835-1464,"5165 Newlands Dr, Brooksville, FL 34601, USA",Brooksville,null
Star Bright Therapy and Obedience Dogs,null,(772) 871-0477,"2025 SW Libra Ln, Port St. Lucie, FL 34984, USA",Port St. Lucie,null
Still Point Farm,http://www.stillpointfarmdressage.com/,null,"4394 S Shore Blvd, Wellington, FL 33414, USA",Wellington,null
Stone Crossings Stables,http://watersedgestables.com/,(941) 740-1630,"7739 Stone Rd, Apopka, FL 32703, USA",Apopka,null
Student and Community Counseling Center,https://www.fgcu.edu/mariebcollege/counseling/communitycounseling/,(239) 745-4777,"10499 FGCU Blvd S, Fort Myers, FL 33965, USA",Fort Myers,null
Suncoast Dog Training,http://www.suncoastdogtraining.com/contact.asp,(727) 847-8840,"15240 County Line Rd, Spring Hill, FL 34610, USA",Spring Hill,null
Sunrise Wildlife Rehabilitation,null,(352) 222-2239,"21374 NW 165th Ave, High Springs, FL 32643, USA",High Springs,null
Sunset Riding Stables,https://sunsetridingstables.com/,(727) 234-5854,"15529 Hays Rd, Spring Hill, FL 34610, USA",Spring Hill,null
Sunshine Circle,https://sunshinecirclefl.com/,(754) 800-4770,"10116 SW 53rd St, Davie, FL 33328, USA",Davie,null
Sunshine Equine and Family Therapy,null,(954) 588-4782,"18233 SW 48th St, Southwest Ranches, FL 33331, USA",Southwest Ranches,null
Supernova English Labradors,http://www.supernovalabradors.com/,(352) 441-5224,"12104 SW 143rd St, Archer, FL 32618, USA",Archer,null
Superpaw training house,null,null,"1599 Sweet Plum Cir, Tallahassee, FL 32312, USA",Tallahassee,null
Surfside Pet Hospital,http://www.surfsidepethospital.com/,(772) 219-8022,"812 SE Osceola St, Stuart, FL 34994, USA",Stuart,null
Sybil's Relaxation Station,http://sybilsrelaxationstation.com/,(321) 557-3719,"882 Riviera Dr NE, Palm Bay, FL 32905, USA",Palm Bay,null
Takemypetwithme.com,https://www.takemypetwithme.com/,(786) 856-6156,"2332 Ludlam Rd, Miami, FL 33155, USA",Miami,null
Tallahassee Animal Services,http://www.talgov.com/animals/,(850) 891-2950,"1125 Easterwood Dr, Tallahassee, FL 32311, USA",Tallahassee,null
Tallahassee Dog Obedience Club,http://www.tdoclub.org/,(850) 562-4421,"Tallahassee, FL 32303, USA",Tallahassee,null
Tallahassee Memorial Behavioral Health Center,https://www.tmh.org/location/tallahassee-memorial-behavioral-health-center,(850) 431-5105,"1616 Physicians Dr, Tallahassee, FL 32308, USA",Tallahassee,null
Tallahassee Memorial Ortho / Spine / Pediatric Outpatient Rehabilitation Center,https://www.tmh.org/services/rehabilitation,(850) 431-7122,"1425 Village Square Blvd, Tallahassee, FL 32312, USA",Tallahassee,null
Tally Cat Cafe,http://tallycatcafe.com/,null,"2218 N Monroe St, Tallahassee, FL 32303, USA",Tallahassee,null
Tally Spay,http://tallyspay.com/,(850) 692-3425,"5021 W Tennessee St, Tallahassee, FL 32304, USA",Tallahassee,null
Tampa Bay K-9 Rehab Center,http://www.tbk9rehab.com/,(727) 521-3518,"4801 4th St N, St. Petersburg, FL 33703, USA",St. Petersburg,null
Team Rakowsky Equestrian,http://teamrakowskyequestrian.com/,(586) 872-6712,"13659 52nd Pl S, Wellington, FL 33414, USA",Wellington,null
Tharp and Canine,https://tharpandcanine.com/,(850) 443-9854,"Tallahassee, FL 32312, USA",Tallahassee,null
The Ace Dog Trainer,http://www.theacedogtrainer.com/,(561) 502-3198,"4887 SW Cherokee St, Palm City, FL 34990, USA",Palm City,null
The Animal Clinic of St.Pete,https://animalclinicstpete.com/,(727) 525-0966,"3201 46th Ave N, St. Petersburg, FL 33714, USA",St. Petersburg,null
The Animal Cracker,https://www.chirofitinc.com/the-animal-cracker,(407) 878-3913,"142 Parliament Lp #1006, Lake Mary, FL 32746, USA",Lake Mary,null
"The Art of Riding, LLC",https://www.artofridingllc.com/,(703) 795-1975,"4797 SW Leighton Farm Ave, Palm City, FL 34990, USA",Palm City,null
"The Bark Stopâ„¢ï¸ Force Free, Reward Based Puppy & Dog Training",http://www.thebarkstop.com/,(407) 537-5537,"3620 Pelican Ln, Orlando, FL 32803, USA",Orlando,null
The British Barn,http://thebritishbarn.com/,(305) 491-9333,"17640 SW 52nd Ct, Southwest Ranches, FL 33331, USA",Southwest Ranches,null
The Canine Professor,http://www.thecanineprofessor.com/,(727) 515-3385,"901 34th Ave N, Ste # 76024, St. Petersburg, FL 33734, USA",St. Petersburg,null
The Dark Horse Arena,http://www.thedarkhorsearena.com/,(904) 229-5276,"23110 E County Rd 1474, Hawthorne, FL 32640, USA",Hawthorne,null
The Dog Man - Pro Dog Training,http://www.dogmanpro.com/,(863) 709-6497,"4210 Palmetto Ave SE, Lakeland, FL 33812, USA",Lakeland,null
"The Dog Training Clinic, LLC",https://thedogtrainingclinic.com/,(561) 436-9875,"7568 Coconut Blvd, West Palm Beach, FL 33412, USA",West Palm Beach,null
"The Doghouse, LLC",http://thedoghousellc.com/,(727) 201-9790,"4365 62nd Ave N, Pinellas Park, FL 33781, USA",Pinellas Park,null
The DRIPBaR Largo,https://thedripbar.com/largo,(727) 739-8444,"10500 Ulmerton Rd Suite 240, Largo, FL 33771, USA",Largo,null
The Florida Cracker Horse Association Inc,https://floridacrackerhorseassociation.com/,(850) 575-6522,"2992 S Lake Bradford Rd, Tallahassee, FL 32310, USA",Tallahassee,null
The Gallery at Cape Coral,https://gallerysrliving.com/communities/the-gallery-at-cape-coral/,(239) 376-0417,"2307 Chiquita Blvd S, Cape Coral, FL 33991, USA",Cape Coral,null
The Holistic Mental Health Clinic,https://www.holisticmentalhealthclinic.com/,(727) 520-9447,"6161 Dr M.L.K. Jr St N #204, St. Petersburg, FL 33703, USA",St. Petersburg,null
The Island Dog Academy,null,(813) 613-4971,"#590, Clearwater, FL 33759, USA",Clearwater,null
The Kearney Center,http://kearneycenter.org/,(850) 792-9000,"2650 Municipal Wy, Tallahassee, FL 32304, USA",Tallahassee,null
The Loyal Canine Dog Training,http://www.tlcdogtraining.net/,(813) 434-3108,"25755 Tilly Hawk Ln, Brooksville, FL 34602, USA",Brooksville,null
The Loyal Paws,http://www.loyalpawskennel.com/,(727) 275-0317,"9203 Weatherly Rd, Brooksville, FL 34601, USA",Brooksville,null
The Naturally Healthy Pet,http://www.petstoretallahassee.com/,(850) 576-7387,"1850 Thomasville Rd, Tallahassee, FL 32303, USA",Tallahassee,null
The Painted Horse Ranch Rescue,http://paintedhorserescue.com/,(321) 591-3406,"2400 Valkaria Rd, Malabar, FL 32950, USA",Malabar,null
The Pet Emergency Room,http://www.svrcflorida.com/,(305) 666-4142,"6394 S Dixie Hwy, South Miami, FL 33143, USA",South Miami,null
The Pet Stem Cell Institute,null,(813) 783-6738,"3591 Keystone Rd, Tarpon Springs, FL 34688, USA",Tarpon Springs,null
The Puppy Ladies,http://thepuppyladies.com/,(786) 327-9899,"3092 Hawks Landing Dr, Tallahassee, FL 32309, USA",Tallahassee,null
The Sheepdog Program,http://thesheepdogprogram.com/,(321) 345-0638,"100 S Harbor City Blvd Floor 2, Melbourne, FL 32901, USA",Melbourne,null
The Social Dog LLC,http://www.thesocialdognj.com/,(732) 500-7735,"2800 N Ocean Dr, Singer Island, FL 33404, USA",Singer Island,null
The Stables on Buck Lake,https://www.thestablesonbucklake.com/,(850) 629-6565,"9400 Buck Lake Rd, Tallahassee, FL 32317, USA",Tallahassee,null
The WAVE of Clearwater,https://thewaveclearwater.com/,(727) 629-5198,"2120 Range Rd, Clearwater, FL 33765, USA",Clearwater,null
"Therapeutic Foundations, LLC",https://therapeuticfoundations.com/,(386) 254-8788,"555 W Granada Blvd Suite A-11, Ormond Beach, FL 32174, USA",Ormond Beach,null
Thrifty Dog Thrift Store,http://www.animalade.org/,(352) 701-1107,"9017 Commercial Way Unit C, Spring Hill, FL 34613, USA",Spring Hill,null
Timberlane Pet Hospital & Resort,http://timberlanevet.com/,(813) 754-7387,"1704 Walden Village Ct, Plant City, FL 33566, USA",Plant City,null
"Tina's Equine Services, Inc.",http://www.tinasequineservices.com/,(321) 482-8282,"3967 May Ln, Malabar, FL 32950, USA",Malabar,null
"TM Canine Services, LLC",http://tmcanineservices.com/,(386) 301-2011,"517 Legume Dr, Port Orange, FL 32127, USA",Port Orange,null
TMH Physician Partners - Radiation Oncology,https://www.tmh.org/location/tmh-physician-partners-radiation-oncology,(850) 431-5255,"1775 One Healing Place, Tallahassee, FL 32308, USA",Tallahassee,null
Tomorrow Farms,https://tomorrow-farms.com/,(561) 955-0644,"8297 Bridle Path, Boca Raton, FL 33496, USA",Boca Raton,null
"Tomorrow's Rainbow, Inc",https://www.tomorrowsrainbow.org/,(954) 978-2390,"4341 NW 39th Ave, Coconut Creek, FL 33073, USA",Coconut Creek,null
Top Dog Training South Florida,http://www.topdogtrainingfl.com/,(561) 928-5678,"5064 Lake Catalina Dr N unit a, Boca Raton, FL 33496, USA",Boca Raton,null
Total Health Guidance,http://www.totalhealthguidance.com/,(321) 332-6984,"5401 S Kirkman Rd Suite 730, Orlando, FL 32819, USA",Orlando,null
Total Recovery Care,null,(386) 317-9355,"1783 S Ridgewood Ave, South Daytona, FL 32119, USA",South Daytona,null
Tradewinds Park & Stables,http://www.broward.org/parks/Pages/Park.aspx?=39,(954) 357-8870,"3600 W Sample Rd, Coconut Creek, FL 33066, USA",Coconut Creek,null
Treasure Coast Autism Project,https://tcapschool.com/,(772) 284-1391,"777 SE Salerno Rd, Stuart, FL 34997, USA",Stuart,null
Treasure Coast Kennel Club,http://treasurecoastkennelclub.org/,null,"505 Georgia Ave, Fort Pierce, FL 34950, USA",Fort Pierce,null
Treasure Coast Kennel Club,http://www.treasurecoastkennelclub.org/#!contact-us/c13w,(772) 342-0516,"1109 SE Coral Reef St, Port St. Lucie, FL 34983, USA",Port St. Lucie,null
"Treeline Enrichment, LLC",http://www.treelineenrichment.com/,(863) 271-4519,"701 E Sparkman Rd, Plant City, FL 33566, USA",Plant City,null
True Behavioral Community Center,null,(786) 482-5511,"4160 W 16th Ave Suite 304-B, Hialeah, FL 33012, USA",Hialeah,null
Tu-Bahd Farms,null,null,"1100 Tilton Rd, Port St. Lucie, FL 34952, USA",Port St. Lucie,null
Turkey Creek Stables,https://turkeycreekstables.net/,(813) 737-1312,"5534 Turkey Creek Rd, Plant City, FL 33567, USA",Plant City,null
"UF/IFAS Horse Teaching Unit - Gainesville, FL",http://www.ufequine.com/,(352) 376-0562,"1934 SW 63rd Ave, Gainesville, FL 32608, USA",Gainesville,null
UFAR Animals Rescue,https://ufarescue.org/,(954) 761-6814,"366-364 S State Rd 7, Margate, FL 33068, USA",Margate,null
Unbridled Therapy,http://www.unbridledtherapy.com/,(352) 318-4795,"2306 SW 13th St, Gainesville, FL 32608, USA",Gainesville,null
University Behavioral Center,https://universitybehavioral.com/,(407) 281-7000,"2500 Discovery Dr, Orlando, FL 32826, USA",Orlando,null
University of Florida: Small Animal Clinical Sciences,http://www.vetmed.ufl.edu/,(352) 392-2226,"2015 SW 16th Ave, Gainesville, FL 32608, USA",Gainesville,null
Upper Suncoast Dog Training Club,http://www.usdtc.org/,(727) 238-5953,"2101 Logan St, Clearwater, FL 33765, USA",Clearwater,null
Urban Pawz Animal Clinic,https://urbanpawzanimalclinic.com/,(954) 445-3018,"5463 Lyons Rd, Coconut Creek, FL 33073, USA",Coconut Creek,null
USA Sports Therapy Fisher Island,https://usasportsmedicine.com/locations/fisher-island/,(305) 735-3610,"1 Fisher Island Dr Spa Internazionale, Miami, FL 33109, USA",Miami,null
Valencia Hills Health & Rehab Center,http://www.valenciahillshr.com/,(863) 858-4402,"1350 Sleepy Hill Rd, Lakeland, FL 33810, USA",Lakeland,null
Vanguard Protection Dogs,https://www.vanguardprotectiondogs.com/?utm_source=google&utm_medium=gpbh&utm_campaign=Jacksonville&utm_term=dogtrainer&utm_content=idgbp,(904) 822-1609,"13709 Forest Blvd, Jacksonville, FL 32246, USA",Jacksonville,null
VON Der Man Rottweiler kennel,https://www.vondermanrottweilers.com/,(786) 520-6583,"17105 Co Rd 325, Hawthorne, FL 32640, USA",Hawthorne,null
Wag-n-Walk,http://www.wag-n-walk.net/,(850) 251-3969,"432 High Point Ln, Tallahassee, FL 32301, USA",Tallahassee,null
Wags About You,https://wagsaboutyou.com/?utm_source=GMBlisting&utm_medium=organic,(772) 362-2695,"822 SW Federal Hwy, Stuart, FL 34994, USA",Stuart,null
Walden Lake Animal Clinic,http://waldenanimal.com/,(813) 754-1834,"802 S Alexander St, Plant City, FL 33563, USA",Plant City,null
Warrior Wellness Program,https://warriorwellnessprogram.org/,(727) 939-8387,"1750 Arcadia Rd, Holiday, FL 34690, USA",Holiday,null
WeBeCoons Maine Coons,http://www.mainecoon.co/,(239) 699-8741,"806 Elinor Way, Sanibel, FL 33957, USA",Sanibel,null
WellPack Pharmacy : Compounding & Wellness,http://www.wellpackrx.com/,(850) 765-4026,"1624 Capital Cir NE # 210, Tallahassee, FL 32308, USA",Tallahassee,null
Wellspring Health and Sports Performance,http://wsphealth.com/,(904) 249-1551,"710 3rd St N, Jacksonville Beach, FL 32250, USA",Jacksonville Beach,null
Westminster Woods on Julington Creek,http://www.westminsterwoodsfl.org/,(904) 621-2099,"25 FL-13, Jacksonville, FL 32259, USA",Jacksonville,null
Westside Animal Clinic,https://www.wacspringhill.com/,(352) 683-1512,"3501 Commercial Way, Spring Hill, FL 34606, USA",Spring Hill,null
Wet Kisses Pet Company,http://www.wetkissespetcompany.com/,(561) 439-0114,"6169 Jog Rd C8, Greenacres, FL 33467, USA",Greenacres,null
White horse farm,http://www.whitehorsefarmswfl.com/,(239) 414-4030,"17840 Shelby Ln, North Fort Myers, FL 33917, USA",North Fort Myers,null
Wickham Park Equine Club,http://wickhamparkequineclub.org/,(321) 432-2316,"2600 Washingtonia Dr, Melbourne, FL 32934, USA",Melbourne,null
Wild Animal Health Fund,http://www.wildanimalhealthfund.org/,(904) 643-2637,"370 Zoo Pkwy, Jacksonville, FL 32218, USA",Jacksonville,null
Wild Life Chiropractic,http://wildlifechiro.com/,(321) 750-8850,"3150 N Wickham Rd #5, Melbourne, FL 32935, USA",Melbourne,null
Wildlife Rehabilitation,null,(772) 221-1231,"PO Box 1231, Palm City, FL 34991, USA",Palm City,null
Wildlife Survival Sanctuary,null,(352) 797-4785,"18212 Booming Rd, Spring Hill, FL 34610, USA",Spring Hill,null
Willows Way Stables LLC,https://willowswaystables.com/,(850) 966-0400,"158 Woodrich Rd, Crawfordville, FL 32327, USA",Crawfordville,null
Winding Oaks Equestrian Center,null,(813) 600-0536,"18835 Phillips Rd, Brooksville, FL 34604, USA",Brooksville,null
Winding Paths Equestrian,null,(305) 926-8239,"21605 SW 152nd Ave, Miami, FL 33170, USA",Miami,null
Winstar Farm,http://www.winstarfarmfl.com/,(239) 872-9709,"11434 Ranchette Rd, Fort Myers, FL 33966, USA",Fort Myers,null
Winter Garden Feed Co.,https://www.wgfeed.com/,(407) 877-2553,"12403 W Colonial Dr, Winter Garden, FL 34787, USA",Winter Garden,null
Wish Me Luck Farms,http://www.wishmeluckfarms.com/,(772) 245-9039,"20009 Southern Star Dr, Fort Pierce, FL 34945, USA",Fort Pierce,null
Wisney's Way Dog Training,https://wisneyswaydogtraining.com/,(321) 544-5720,"4100 N Wickham Rd, Melbourne, FL 32935, USA",Melbourne,null
WooF Dogs - Dog Training & Canine Behavior Consultants,https://www.woofdogs.com/,(561) 594-4111,"4200 Global Trail, Loxahatchee, FL 33470, USA",Loxahatchee,null
Y Knot Equestrian,http://www.yknotequestrian.wordpress.com/,(904) 755-4170,"5514 118th St, Jacksonville, FL 32244, USA",Jacksonville,null
YB Equestrian,https://www.ybhorsetraining.com/,(424) 302-7822,"17450 Sunset Dr, Southwest Ranches, FL 33331, USA",Southwest Ranches,null
Zoom Room Dog Training,https://zoomroom.com/location/winter-park/,(407) 891-4597,"5429 Lake Howell Rd, Winter Park, FL 32792, USA",Winter Park,null
Zoom Room Dog Training,https://zoomroom.com/location/st-petersburg/,(727) 490-9069,"2008 66th St N, St. Petersburg, FL 33710, USA",St. Petersburg,null
Zoom Room Dog Training,https://zoomroom.com/location/coral-springs/,(954) 500-9666,"3420 NW 62nd Ave, Margate, FL 33063, USA",Margate,null