provider_id,provider_name,phone,city,state,website,has_valid_website,pages_crawled,aba_found,aba_pages,behavior_analysis_found,behavior_analysis_pages,autism_found,autism_pages,pediatric_speech_found,pediatric_ot_found,pediatric_pt_found,therapy_pages,recommendation,notes
6263,GREEN STEPHANIE A,(239) 410-7524,FT MYERS,FL,https://flddresources.qlarant.com/ProviderSearch/Home/GetProviderDetails/148027081718542721,False,0,False,,False,,False,,False,False,False,,FLAG_FOR_REVIEW,No valid website or FL-DD database link
5505,"COMMUNITY RESOURCE NETWORK OF FLORIDA, LLC",(239) 415-7400,FORT MYERS,FL,https://flddresources.qlarant.com/ProviderSearch/Home/GetProviderDetails/124040583718541824,False,0,False,,False,,False,,False,False,False,,FLAG_FOR_REVIEW,No valid website or FL-DD database link
6248,"GLORIA LONGO, INC.",(239) 450-5970,NAPLES,FL,https://flddresources.qlarant.com/ProviderSearch/Home/GetProviderDetails/148025152018542479,False,0,False,,False,,False,,False,False,False,,FLAG_FOR_REVIEW,No valid website or FL-DD database link
7029,NEXT LEVEL SUPPORTS LLC,(239) 451-3211,CAPE CORAL,FL,https://flddresources.qlarant.com/ProviderSearch/Home/GetProviderDetails/148041964518542479,False,0,False,,False,,False,,False,False,False,,FLAG_FOR_REVIEW,No valid website or FL-DD database link
6739,"LEE COUNTY BOARD OF CO COMMISSIONER
LEE TRAN PASSPORT SERVICE",(239) 533-0350,FORT MYERS,FL,https://flddresources.qlarant.com/ProviderSearch/Home/GetProviderDetails/100028011118542721,False,0,False,,False,,False,,False,False,False,,FLAG_FOR_REVIEW,No valid website or FL-DD database link
7520,"RELIABLE TRANSPORTATION OF SW FL, LLC",(239) 677-5738,CAPE CORAL,FL,https://flddresources.qlarant.com/ProviderSearch/Home/GetProviderDetails/100001171218542721,False,0,False,,False,,False,,False,False,False,,FLAG_FOR_REVIEW,No valid website or FL-DD database link
6076,FRESH OASIS INC.,(239) 682-6325,NAPLES,FL,https://flddresources.qlarant.com/ProviderSearch/Home/GetProviderDetails/148040475818542495,False,0,False,,False,,False,,False,False,False,,FLAG_FOR_REVIEW,No valid website or FL-DD database link
7630,SHALIMARE INCORPORATED,(239) 694-0476,FORT MYERS,FL,https://flddresources.qlarant.com/ProviderSearch/Home/GetProviderDetails/148026850718542495,False,0,False,,False,,False,,False,False,False,,FLAG_FOR_REVIEW,No valid website or FL-DD database link
7170,"PANACHE HOLISTICS, INC",(239) 839-4997,FT MYERS,FL,https://flddresources.qlarant.com/ProviderSearch/Home/GetProviderDetails/148027699818542721,False,0,False,,False,,False,,False,False,False,,FLAG_FOR_REVIEW,No valid website or FL-DD database link
7217,"PROJECT CHOICE, LLC",(239) 931-7130,FORT MYERS,FL,https://flddresources.qlarant.com/ProviderSearch/Home/GetProviderDetails/148034229218542479,False,0,False,,False,,False,,False,False,False,,FLAG_FOR_REVIEW,No valid website or FL-DD database link
8029,TOUCHING LIVES OF TAMPA BAY LLC,(276) 393-9206,CLEARWATER,FL,https://flddresources.qlarant.com/ProviderSearch/Home/GetProviderDetails/148039435718542721,False,0,False,,False,,False,,False,False,False,,FLAG_FOR_REVIEW,No valid website or FL-DD database link
7205,"PPH FL-SUNCOAST, LLC
PARK HOME CARE",(303) 931-2035,LARGO,FL,https://flddresources.qlarant.com/ProviderSearch/Home/GetProviderDetails/100046779418542479,False,0,False,,False,,False,,False,False,False,,FLAG_FOR_REVIEW,No valid website or FL-DD database link
7186,PERSONAL CARE SERVICES,(305) 225-5271,MIAMI,FL,https://flddresources.qlarant.com/ProviderSearch/Home/GetProviderDetails/136023749018542134,False,0,False,,False,,False,,False,False,False,,FLAG_FOR_REVIEW,No valid website or FL-DD database link
7517,REHABILITATION OF SOUTH FLORIDA INC,(305) 226-7718,MIAMI,FL,https://flddresources.qlarant.com/ProviderSearch/Home/GetProviderDetails/100026955718543251,False,0,False,,False,,False,,False,False,False,,FLAG_FOR_REVIEW,No valid website or FL-DD database link
6047,"FAITH HEALTH CARE, INC.",(305) 228-4800,MIAMI,FL,https://flddresources.qlarant.com/ProviderSearch/Home/GetProviderDetails/172002970618543251,False,0,False,,False,,False,,False,False,False,,FLAG_FOR_REVIEW,No valid website or FL-DD database link
4961,ASA HOME CARE INC,(305) 229-1400,MIAMI,FL,https://flddresources.qlarant.com/ProviderSearch/Home/GetProviderDetails/172025538118543351,False,0,False,,False,,False,,False,False,False,,FLAG_FOR_REVIEW,No valid website or FL-DD database link
15997,Skycrest Place Group Home,(727) 254-1196,Clearwater,FL,http://www.skycrestplace.com/,True,1,False,,False,,False,,False,False,False,,FLAG_FOR_REMOVAL,"Crawled 1 pages â€” no ABA, autism, or therapy found"
15998,New Beginnings Counseling,(401) 486-6081,Daytona Beach Shores,FL,,False,0,False,,False,,False,,False,False,False,,FLAG_FOR_REVIEW,No valid website or FL-DD database link
15999,Behavioral Evaluation Program,(727) 464-7373,Clearwater,FL,,False,0,False,,False,,False,,False,False,False,,FLAG_FOR_REVIEW,No valid website or FL-DD database link
16000,Therapy West 2,(407) 900-3026,Maitland,FL,http://www.therapywest2.com/,True,2,False,,False,,False,,False,True,False,home|/about,KEEP_RECATEGORIZE_THERAPY,Pediatric therapy found: OT
7182,"PEDIATRIC RESPIRATORY CARE OF SOUTH FLORIDA,INC.
JKARE",(305) 248-1003,MIAMI,FL,https://flddresources.qlarant.com/ProviderSearch/Home/GetProviderDetails/100002591818543134,False,0,False,,False,,False,,False,False,False,,FLAG_FOR_REVIEW,No valid website or FL-DD database link
6587,"JOYFUL HOME HEALTH SERVICES, CORP.",(305) 251-4989,MIAMI,FL,https://flddresources.qlarant.com/ProviderSearch/Home/GetProviderDetails/172035699618543251,False,0,False,,False,,False,,False,False,False,,FLAG_FOR_REVIEW,No valid website or FL-DD database link
4889,"ADVANCED CARE MEDICAL SUPPLIES, INC
ADVANCE CARE MEDICAL SUPPLIES, INC",(305) 256-1653,MIAMI,FL,https://flddresources.qlarant.com/ProviderSearch/Home/GetProviderDetails/100035764918543134,False,0,False,,False,,False,,False,False,False,,FLAG_FOR_REVIEW,No valid website or FL-DD database link
4915,"ALLIANCE HOMECARE SYSTEMS, INC.",(305) 256-5551,MIAMI,FL,https://flddresources.qlarant.com/ProviderSearch/Home/GetProviderDetails/100026287318543134,False,0,False,,False,,False,,False,False,False,,FLAG_FOR_REVIEW,No valid website or FL-DD database link
5454,C.A.D.C. CORP.,(305) 269-6845,MIAMI,FL,https://flddresources.qlarant.com/ProviderSearch/Home/GetProviderDetails/172024923518543251,False,0,False,,False,,False,,False,False,False,,FLAG_FOR_REVIEW,No valid website or FL-DD database link
8012,"THE WOW CENTER INC
THE WOW CENTER",(305) 279-7999,MIAMI,FL,https://flddresources.qlarant.com/ProviderSearch/Home/GetProviderDetails/172003973318543186,False,0,False,,False,,False,,False,False,False,,FLAG_FOR_REVIEW,No valid website or FL-DD database link
6901,"MONROE ASSOCIATION FOR RETARDED CITIZENS, INC.",(305) 294-9526,KEY WEST,FL,https://flddresources.qlarant.com/ProviderSearch/Home/GetProviderDetails/172003969418543186,False,0,False,,False,,False,,False,False,False,,FLAG_FOR_REVIEW,No valid website or FL-DD database link
6237,GENUINE LOVE AND CARE LLC,(305) 298-3049,MIAMI GARDENS,FL,https://flddresources.qlarant.com/ProviderSearch/Home/GetProviderDetails/160038491618542847,False,0,False,,False,,False,,False,False,False,,FLAG_FOR_REVIEW,No valid website or FL-DD database link
7516,"REGIONS HEALTHCARE SERVICES, LLC",(305) 305-3545,MIAMI,FL,https://flddresources.qlarant.com/ProviderSearch/Home/GetProviderDetails/172000250318543264,False,0,False,,False,,False,,False,False,False,,FLAG_FOR_REVIEW,No valid website or FL-DD database link
6255,"GOODWILL INDUSTRIES OF SOUTH FLORIDA, INC.",(305) 326-4134,MIAMI,FL,https://flddresources.qlarant.com/ProviderSearch/Home/GetProviderDetails/172003972918543186,False,0,False,,False,,False,,False,False,False,,FLAG_FOR_REVIEW,No valid website or FL-DD database link
5941,ESSENTIAL WELLNESS OF SOUTH FLORIDA INC,(305) 332-3266,MIAMI LAKES,FL,https://flddresources.qlarant.com/ProviderSearch/Home/GetProviderDetails/160041375518542754,False,0,False,,False,,False,,False,False,False,,FLAG_FOR_REVIEW,No valid website or FL-DD database link
6769,LYAM FACILITIES CORP,(305) 333-2659,FORT LAUDERDALE,FL,https://flddresources.qlarant.com/ProviderSearch/Home/GetProviderDetails/160040840918542847,False,0,False,,False,,False,,False,False,False,,FLAG_FOR_REVIEW,No valid website or FL-DD database link
6335,H.L SUPERIOR REMODELING CORP,(305) 343-5663,HIALEAH,FL,https://flddresources.qlarant.com/ProviderSearch/Home/GetProviderDetails/100039709818543163,False,0,False,,False,,False,,False,False,False,,FLAG_FOR_REVIEW,No valid website or FL-DD database link
5565,CSI CATALANOS NURSES REGISTRY INC,(305) 364-5911,MEDLEY,FL,https://flddresources.qlarant.com/ProviderSearch/Home/GetProviderDetails/172027027718543264,False,0,False,,False,,False,,False,False,False,,FLAG_FOR_REVIEW,No valid website or FL-DD database link
4894,"ADVANCED THERAPY WORKS, INC",(305) 378-5247,MIAMI,FL,https://flddresources.qlarant.com/ProviderSearch/Home/GetProviderDetails/100026514518543251,False,0,False,,False,,False,,False,False,False,,FLAG_FOR_REVIEW,No valid website or FL-DD database link
7616,"S.L.B. THERAPY, INC.",(305) 378-5775,CUTLER BAY,FL,https://flddresources.qlarant.com/ProviderSearch/Home/GetProviderDetails/100036239518543251,False,0,False,,False,,False,,False,False,False,,FLAG_FOR_REVIEW,No valid website or FL-DD database link
7985,"TEBAR MEDICAL SUPPLIES & EQUIPMENT, INC",(305) 382-0510,MIAMI,FL,https://flddresources.qlarant.com/ProviderSearch/Home/GetProviderDetails/100001394618543134,False,0,False,,False,,False,,False,False,False,,FLAG_FOR_REVIEW,No valid website or FL-DD database link
7680,"SUNRISE COMMUNITY OF SOUTHWEST FLORIDA, INC.",(305) 596-9040,CAPE CORAL,FL,https://flddresources.qlarant.com/ProviderSearch/Home/GetProviderDetails/148012653418542495,False,0,False,,False,,False,,False,False,False,,FLAG_FOR_REVIEW,No valid website or FL-DD database link
16001,Children's Center for Therapy and Learning,(305) 895-0444,North Miami,FL,http://www.therapyandlearning.com/,True,4,True,home|/about|/about-us|/our-services,False,,True,/about|/about-us|/our-services,True,True,True,home|/about|/about-us|/our-services,KEEP_AS_ABA,"ABA verified on pages: home, /about, /about-us, /our-services"
6378,HOUSING AND ASSISTIVE TECHNOLOGY IN,(305) 608-0692,MIAMI,FL,https://flddresources.qlarant.com/ProviderSearch/Home/GetProviderDetails/100026667818543163,False,0,False,,False,,False,,False,False,False,,FLAG_FOR_REVIEW,No valid website or FL-DD database link
8249,UNITED THERAPY SOLUTION LLC.,(305) 756-9947,MIAMI,FL,https://flddresources.qlarant.com/ProviderSearch/Home/GetProviderDetails/160041065118542907,False,0,False,,False,,False,,False,False,False,,FLAG_FOR_REVIEW,No valid website or FL-DD database link
6864,"MAC TOWN,INC",(305) 758-4485,MIAMI,FL,https://flddresources.qlarant.com/ProviderSearch/Home/GetProviderDetails/160003971518542847,False,0,False,,False,,False,,False,False,False,,FLAG_FOR_REVIEW,No valid website or FL-DD database link
6261,GRACEFUL HOMES LLC,(305) 763-1188,NORTH FORT MYERS,FL,https://flddresources.qlarant.com/ProviderSearch/Home/GetProviderDetails/148040989018542721,False,0,False,,False,,False,,False,False,False,,FLAG_FOR_REVIEW,No valid website or FL-DD database link
6373,HOMED CARE INC,(305) 769-3332,HIALEAH,FL,https://flddresources.qlarant.com/ProviderSearch/Home/GetProviderDetails/172025413318543251,False,0,False,,False,,False,,False,False,False,,FLAG_FOR_REVIEW,No valid website or FL-DD database link
4927,AMERICARE HOME HEALTHCARE SERVICES INC,(305) 770-4344,MIAMI,FL,https://flddresources.qlarant.com/ProviderSearch/Home/GetProviderDetails/172035441118543264,False,0,False,,False,,False,,False,False,False,,FLAG_FOR_REVIEW,No valid website or FL-DD database link
4906,"ALL ABOUT ME SUPPORTS & SERVICES, INC.",(305) 790-7692,MIAMI,FL,https://flddresources.qlarant.com/ProviderSearch/Home/GetProviderDetails/160034915118542835,False,0,False,,False,,False,,False,False,False,,FLAG_FOR_REVIEW,No valid website or FL-DD database link
5910,E&R HEALTH CARE INC.,(305) 794-8895,MIAMI,FL,https://flddresources.qlarant.com/ProviderSearch/Home/GetProviderDetails/100043900518543264,False,0,False,,False,,False,,False,False,False,,FLAG_FOR_REVIEW,No valid website or FL-DD database link
4835,A LOVING PLACE LLC,(321) 217-5746,APOPKA,FL,https://flddresources.qlarant.com/ProviderSearch/Home/GetProviderDetails/136040981418542370,False,0,False,,False,,False,,False,False,False,,FLAG_FOR_REVIEW,No valid website or FL-DD database link
5257,"BRIDGES BTC, INC",(321) 690-3464,ROCKLEDGE,FL,https://flddresources.qlarant.com/ProviderSearch/Home/GetProviderDetails/136003859218542370,False,0,False,,False,,False,,False,False,False,,FLAG_FOR_REVIEW,No valid website or FL-DD database link
6732,LAPOINTE MICHEL C,(321) 951-1360,MELBOURNE,FL,https://flddresources.qlarant.com/ProviderSearch/Home/GetProviderDetails/100010065718542032,False,0,False,,False,,False,,False,False,False,,FLAG_FOR_REVIEW,No valid website or FL-DD database link
